<?xml version="1.0" encoding="UTF-8"?>
<gpx version="1.1" creator="Runvis" xmlns="http://www.topografix.com/GPX/1/1">
<trk><name>낙산공원 한양도성길</name><trkseg>
<trkpt lat="37.571540" lon="127.009747"><ele>40.0</ele></trkpt>
<trkpt lat="37.571949" lon="127.009741"><ele>41.7</ele></trkpt>
<trkpt lat="37.572149" lon="127.009648"><ele>41.7</ele></trkpt>
<trkpt lat="37.572332" lon="127.009539"><ele>43.8</ele></trkpt>
<trkpt lat="37.572519" lon="127.009358"><ele>44.6</ele></trkpt>
<trkpt lat="37.572617" lon="127.009253"><ele>45.3</ele></trkpt>
<trkpt lat="37.572622" lon="127.009106"><ele>45.3</ele></trkpt>
<trkpt lat="37.572730" lon="127.008921"><ele>46.7</ele></trkpt>
<trkpt lat="37.572915" lon="127.008907"><ele>47.9</ele></trkpt>
<trkpt lat="37.573105" lon="127.008933"><ele>51.4</ele></trkpt>
<trkpt lat="37.573417" lon="127.008923"><ele>52.3</ele></trkpt>
<trkpt lat="37.573672" lon="127.009011"><ele>56.6</ele></trkpt>
<trkpt lat="37.573817" lon="127.008948"><ele>57.8</ele></trkpt>
<trkpt lat="37.573994" lon="127.008852"><ele>59.9</ele></trkpt>
<trkpt lat="37.574149" lon="127.008841"><ele>62.6</ele></trkpt>
<trkpt lat="37.574316" lon="127.008952"><ele>65.5</ele></trkpt>
<trkpt lat="37.574582" lon="127.009052"><ele>67.3</ele></trkpt>
<trkpt lat="37.574700" lon="127.009052"><ele>69.2</ele></trkpt>
<trkpt lat="37.574826" lon="127.009044"><ele>69.7</ele></trkpt>
<trkpt lat="37.574984" lon="127.008965"><ele>71.0</ele></trkpt>
<trkpt lat="37.575154" lon="127.008849"><ele>72.3</ele></trkpt>
<trkpt lat="37.575254" lon="127.008792"><ele>72.8</ele></trkpt>
<trkpt lat="37.575430" lon="127.008702"><ele>74.1</ele></trkpt>
<trkpt lat="37.575598" lon="127.008620"><ele>75.0</ele></trkpt>
<trkpt lat="37.575724" lon="127.008579"><ele>76.4</ele></trkpt>
<trkpt lat="37.575832" lon="127.008553"><ele>76.4</ele></trkpt>
<trkpt lat="37.575980" lon="127.008549"><ele>78.7</ele></trkpt>
<trkpt lat="37.576154" lon="127.008563"><ele>79.2</ele></trkpt>
<trkpt lat="37.576397" lon="127.008608"><ele>80.3</ele></trkpt>
<trkpt lat="37.576507" lon="127.008641"><ele>81.5</ele></trkpt>
<trkpt lat="37.576718" lon="127.008692"><ele>82.8</ele></trkpt>
<trkpt lat="37.576973" lon="127.008711"><ele>83.3</ele></trkpt>
<trkpt lat="37.577158" lon="127.008731"><ele>83.8</ele></trkpt>
<trkpt lat="37.577440" lon="127.008576"><ele>84.5</ele></trkpt>
<trkpt lat="37.577578" lon="127.008446"><ele>85.3</ele></trkpt>
<trkpt lat="37.577700" lon="127.008417"><ele>86.8</ele></trkpt>
<trkpt lat="37.577922" lon="127.008477"><ele>87.5</ele></trkpt>
<trkpt lat="37.578120" lon="127.008421"><ele>89.5</ele></trkpt>
<trkpt lat="37.578294" lon="127.008270"><ele>91.4</ele></trkpt>
<trkpt lat="37.578455" lon="127.008159"><ele>93.3</ele></trkpt>
<trkpt lat="37.578639" lon="127.008125"><ele>95.0</ele></trkpt>
<trkpt lat="37.578916" lon="127.008163"><ele>96.7</ele></trkpt>
<trkpt lat="37.579142" lon="127.008191"><ele>98.4</ele></trkpt>
<trkpt lat="37.579259" lon="127.008262"><ele>98.3</ele></trkpt>
<trkpt lat="37.579387" lon="127.008337"><ele>98.6</ele></trkpt>
<trkpt lat="37.579646" lon="127.008597"><ele>99.1</ele></trkpt>
<trkpt lat="37.579809" lon="127.008736"><ele>99.9</ele></trkpt>
<trkpt lat="37.579972" lon="127.008834"><ele>100.9</ele></trkpt>
<trkpt lat="37.580206" lon="127.008884"><ele>102.0</ele></trkpt>
<trkpt lat="37.580459" lon="127.008954"><ele>101.0</ele></trkpt>
<trkpt lat="37.580600" lon="127.008935"><ele>100.8</ele></trkpt>
<trkpt lat="37.580829" lon="127.008749"><ele>100.8</ele></trkpt>
<trkpt lat="37.580927" lon="127.008682"><ele>101.0</ele></trkpt>
<trkpt lat="37.581059" lon="127.008599"><ele>99.9</ele></trkpt>
<trkpt lat="37.581179" lon="127.008532"><ele>99.5</ele></trkpt>
<trkpt lat="37.581253" lon="127.008427"><ele>99.1</ele></trkpt>
<trkpt lat="37.581300" lon="127.008249"><ele>97.6</ele></trkpt>
<trkpt lat="37.581483" lon="127.008025"><ele>95.3</ele></trkpt>
<trkpt lat="37.581611" lon="127.007923"><ele>94.7</ele></trkpt>
<trkpt lat="37.581671" lon="127.007743"><ele>94.0</ele></trkpt>
<trkpt lat="37.581739" lon="127.007599"><ele>93.4</ele></trkpt>
<trkpt lat="37.581847" lon="127.007537"><ele>92.6</ele></trkpt>
<trkpt lat="37.581975" lon="127.007228"><ele>90.8</ele></trkpt>
<trkpt lat="37.582062" lon="127.007114"><ele>90.5</ele></trkpt>
<trkpt lat="37.582189" lon="127.007040"><ele>89.9</ele></trkpt>
<trkpt lat="37.582309" lon="127.006982"><ele>89.2</ele></trkpt>
<trkpt lat="37.582449" lon="127.007030"><ele>88.8</ele></trkpt>
<trkpt lat="37.582581" lon="127.007113"><ele>88.5</ele></trkpt>
<trkpt lat="37.582718" lon="127.007262"><ele>87.2</ele></trkpt>
<trkpt lat="37.582904" lon="127.007457"><ele>85.8</ele></trkpt>
<trkpt lat="37.583133" lon="127.007410"><ele>84.5</ele></trkpt>
<trkpt lat="37.583352" lon="127.007420"><ele>84.2</ele></trkpt>
<trkpt lat="37.583551" lon="127.007329"><ele>83.5</ele></trkpt>
<trkpt lat="37.583687" lon="127.007242"><ele>81.9</ele></trkpt>
<trkpt lat="37.583838" lon="127.007226"><ele>80.8</ele></trkpt>
<trkpt lat="37.584319" lon="127.007141"><ele>78.4</ele></trkpt>
<trkpt lat="37.584491" lon="127.007044"><ele>76.9</ele></trkpt>
<trkpt lat="37.584786" lon="127.006946"><ele>76.3</ele></trkpt>
<trkpt lat="37.584985" lon="127.006983"><ele>75.9</ele></trkpt>
<trkpt lat="37.585251" lon="127.007042"><ele>73.1</ele></trkpt>
<trkpt lat="37.585398" lon="127.007013"><ele>72.5</ele></trkpt>
<trkpt lat="37.585497" lon="127.006925"><ele>70.7</ele></trkpt>
<trkpt lat="37.585587" lon="127.006746"><ele>69.0</ele></trkpt>
<trkpt lat="37.585902" lon="127.006639"><ele>68.2</ele></trkpt>
<trkpt lat="37.586044" lon="127.006674"><ele>66.7</ele></trkpt>
<trkpt lat="37.586219" lon="127.006622"><ele>65.1</ele></trkpt>
<trkpt lat="37.586673" lon="127.006165"><ele>62.0</ele></trkpt>
<trkpt lat="37.586778" lon="127.006073"><ele>62.0</ele></trkpt>
<trkpt lat="37.586919" lon="127.006000"><ele>59.8</ele></trkpt>
<trkpt lat="37.587019" lon="127.005768"><ele>57.7</ele></trkpt>
<trkpt lat="37.587033" lon="127.005493"><ele>56.7</ele></trkpt>
<trkpt lat="37.586994" lon="127.005195"><ele>55.6</ele></trkpt>
<trkpt lat="37.587026" lon="127.004915"><ele>55.4</ele></trkpt>
<trkpt lat="37.587055" lon="127.004774"><ele>54.0</ele></trkpt>
<trkpt lat="37.587193" lon="127.004390"><ele>54.0</ele></trkpt>
<trkpt lat="37.587493" lon="127.004231"><ele>53.6</ele></trkpt>
<trkpt lat="37.587558" lon="127.004429"><ele>53.3</ele></trkpt>
<trkpt lat="37.587649" lon="127.004390"><ele>53.3</ele></trkpt>
</trkseg></trk></gpx>
