<?xml version="1.0" encoding="UTF-8"?>
<gpx version="1.1" creator="Runvis" xmlns="http://www.topografix.com/GPX/1/1">
<trk><name>남산 순환로</name><trkseg>
<trkpt lat="37.551400" lon="126.980700"><ele>104.3</ele></trkpt>
<trkpt lat="37.552100" lon="126.980550"><ele>106.8</ele></trkpt>
<trkpt lat="37.552900" lon="126.980450"><ele>110.2</ele></trkpt>
<trkpt lat="37.553500" lon="126.980400"><ele>117.6</ele></trkpt>
<trkpt lat="37.553250" lon="126.980825"><ele>121.4</ele></trkpt>
<trkpt lat="37.553000" lon="126.981250"><ele>119.0</ele></trkpt>
<trkpt lat="37.552670" lon="126.981550"><ele>121.0</ele></trkpt>
<trkpt lat="37.552340" lon="126.981850"><ele>121.0</ele></trkpt>
<trkpt lat="37.552900" lon="126.981500"><ele>120.8</ele></trkpt>
<trkpt lat="37.553300" lon="126.981350"><ele>116.8</ele></trkpt>
<trkpt lat="37.553700" lon="126.981200"><ele>111.4</ele></trkpt>
<trkpt lat="37.554500" lon="126.981200"><ele>102.0</ele></trkpt>
<trkpt lat="37.555200" lon="126.981550"><ele>92.6</ele></trkpt>
<trkpt lat="37.555500" lon="126.981925"><ele>80.6</ele></trkpt>
<trkpt lat="37.555800" lon="126.982300"><ele>72.4</ele></trkpt>
<trkpt lat="37.556100" lon="126.982750"><ele>67.4</ele></trkpt>
<trkpt lat="37.556400" lon="126.983200"><ele>69.4</ele></trkpt>
<trkpt lat="37.556690" lon="126.984120"><ele>71.4</ele></trkpt>
<trkpt lat="37.556500" lon="126.985100"><ele>76.8</ele></trkpt>
<trkpt lat="37.556200" lon="126.985550"><ele>86.0</ele></trkpt>
<trkpt lat="37.555900" lon="126.986000"><ele>96.4</ele></trkpt>
<trkpt lat="37.555500" lon="126.986325"><ele>106.2</ele></trkpt>
<trkpt lat="37.555100" lon="126.986650"><ele>116.0</ele></trkpt>
<trkpt lat="37.554650" lon="126.986875"><ele>132.8</ele></trkpt>
<trkpt lat="37.554200" lon="126.987100"><ele>155.4</ele></trkpt>
<trkpt lat="37.553750" lon="126.987275"><ele>173.4</ele></trkpt>
<trkpt lat="37.553300" lon="126.987450"><ele>195.2</ele></trkpt>
<trkpt lat="37.552850" lon="126.987550"><ele>222.0</ele></trkpt>
<trkpt lat="37.552400" lon="126.987650"><ele>241.2</ele></trkpt>
<trkpt lat="37.551600" lon="126.987750"><ele>250.8</ele></trkpt>
<trkpt lat="37.551050" lon="126.987850"><ele>260.0</ele></trkpt>
<trkpt lat="37.551200" lon="126.988250"><ele>260.0</ele></trkpt>
<trkpt lat="37.551950" lon="126.987950"><ele>245.8</ele></trkpt>
<trkpt lat="37.552400" lon="126.987775"><ele>231.6</ele></trkpt>
<trkpt lat="37.552850" lon="126.987600"><ele>212.4</ele></trkpt>
<trkpt lat="37.553300" lon="126.987475"><ele>190.6</ele></trkpt>
<trkpt lat="37.553750" lon="126.987350"><ele>168.8</ele></trkpt>
<trkpt lat="37.554175" lon="126.987300"><ele>153.0</ele></trkpt>
<trkpt lat="37.554600" lon="126.987250"><ele>138.6</ele></trkpt>
<trkpt lat="37.555000" lon="126.987375"><ele>129.2</ele></trkpt>
<trkpt lat="37.555400" lon="126.987500"><ele>122.0</ele></trkpt>
<trkpt lat="37.555750" lon="126.987775"><ele>115.4</ele></trkpt>
<trkpt lat="37.556100" lon="126.988050"><ele>108.6</ele></trkpt>
<trkpt lat="37.556400" lon="126.988450"><ele>101.6</ele></trkpt>
<trkpt lat="37.556700" lon="126.988850"><ele>94.6</ele></trkpt>
<trkpt lat="37.556925" lon="126.989325"><ele>94.6</ele></trkpt>
<trkpt lat="37.557150" lon="126.989800"><ele>91.8</ele></trkpt>
<trkpt lat="37.557300" lon="126.990800"><ele>96.2</ele></trkpt>
<trkpt lat="37.557100" lon="126.991750"><ele>94.0</ele></trkpt>
<trkpt lat="37.556600" lon="126.992450"><ele>93.2</ele></trkpt>
<trkpt lat="37.556050" lon="126.992950"><ele>90.8</ele></trkpt>
<trkpt lat="37.555650" lon="126.993075"><ele>93.6</ele></trkpt>
<trkpt lat="37.555250" lon="126.993200"><ele>92.6</ele></trkpt>
<trkpt lat="37.554825" lon="126.993250"><ele>100.4</ele></trkpt>
<trkpt lat="37.554400" lon="126.993300"><ele>106.8</ele></trkpt>
<trkpt lat="37.553975" lon="126.993250"><ele>116.6</ele></trkpt>
<trkpt lat="37.553550" lon="126.993200"><ele>123.4</ele></trkpt>
<trkpt lat="37.553150" lon="126.993100"><ele>134.4</ele></trkpt>
<trkpt lat="37.552750" lon="126.993000"><ele>146.2</ele></trkpt>
<trkpt lat="37.552050" lon="126.992850"><ele>163.0</ele></trkpt>
<trkpt lat="37.551500" lon="126.992600"><ele>182.8</ele></trkpt>
<trkpt lat="37.550900" lon="126.991950"><ele>202.6</ele></trkpt>
<trkpt lat="37.550650" lon="126.991475"><ele>216.6</ele></trkpt>
<trkpt lat="37.550400" lon="126.991000"><ele>227.0</ele></trkpt>
<trkpt lat="37.550225" lon="126.990450"><ele>226.6</ele></trkpt>
<trkpt lat="37.550050" lon="126.989900"><ele>221.2</ele></trkpt>
<trkpt lat="37.549950" lon="126.989325"><ele>217.6</ele></trkpt>
<trkpt lat="37.549850" lon="126.988750"><ele>215.6</ele></trkpt>
<trkpt lat="37.549850" lon="126.988125"><ele>210.2</ele></trkpt>
<trkpt lat="37.549850" lon="126.987500"><ele>207.2</ele></trkpt>
<trkpt lat="37.549950" lon="126.986875"><ele>197.0</ele></trkpt>
<trkpt lat="37.550050" lon="126.986250"><ele>185.0</ele></trkpt>
<trkpt lat="37.550225" lon="126.985650"><ele>168.0</ele></trkpt>
<trkpt lat="37.550400" lon="126.985050"><ele>152.2</ele></trkpt>
<trkpt lat="37.550625" lon="126.984475"><ele>139.8</ele></trkpt>
<trkpt lat="37.550850" lon="126.983900"><ele>129.6</ele></trkpt>
<trkpt lat="37.551025" lon="126.983375"><ele>117.4</ele></trkpt>
<trkpt lat="37.551200" lon="126.982850"><ele>110.2</ele></trkpt>
<trkpt lat="37.551325" lon="126.982350"><ele>102.8</ele></trkpt>
<trkpt lat="37.551450" lon="126.981850"><ele>95.2</ele></trkpt>
<trkpt lat="37.551500" lon="126.981100"><ele>92.2</ele></trkpt>
<trkpt lat="37.551400" lon="126.980700"><ele>90.7</ele></trkpt>
</trkseg></trk></gpx>
