<?xml version="1.0" encoding="UTF-8"?>
<gpx version="1.1" creator="Runvis" xmlns="http://www.topografix.com/GPX/1/1">
<trk><name>반포 한강공원</name><trkseg>
<trkpt lat="37.510895" lon="126.998241"><ele>7.0</ele></trkpt>
<trkpt lat="37.510651" lon="126.997930"><ele>6.7</ele></trkpt>
<trkpt lat="37.510531" lon="126.997678"><ele>6.3</ele></trkpt>
<trkpt lat="37.510464" lon="126.997505"><ele>6.1</ele></trkpt>
<trkpt lat="37.510441" lon="126.997311"><ele>6.0</ele></trkpt>
<trkpt lat="37.510441" lon="126.997114"><ele>6.1</ele></trkpt>
<trkpt lat="37.510470" lon="126.996859"><ele>6.1</ele></trkpt>
<trkpt lat="37.510503" lon="126.996495"><ele>6.2</ele></trkpt>
<trkpt lat="37.510497" lon="126.996351"><ele>6.2</ele></trkpt>
<trkpt lat="37.510476" lon="126.996191"><ele>6.2</ele></trkpt>
<trkpt lat="37.510405" lon="126.995935"><ele>6.2</ele></trkpt>
<trkpt lat="37.510348" lon="126.995804"><ele>6.2</ele></trkpt>
<trkpt lat="37.510287" lon="126.995681"><ele>6.2</ele></trkpt>
<trkpt lat="37.510194" lon="126.995555"><ele>6.2</ele></trkpt>
<trkpt lat="37.510115" lon="126.995456"><ele>6.1</ele></trkpt>
<trkpt lat="37.510021" lon="126.995362"><ele>6.0</ele></trkpt>
<trkpt lat="37.509923" lon="126.995279"><ele>6.0</ele></trkpt>
<trkpt lat="37.509761" lon="126.995191"><ele>6.0</ele></trkpt>
<trkpt lat="37.509598" lon="126.995144"><ele>5.9</ele></trkpt>
<trkpt lat="37.509415" lon="126.995080"><ele>5.8</ele></trkpt>
<trkpt lat="37.509288" lon="126.995007"><ele>5.8</ele></trkpt>
<trkpt lat="37.509163" lon="126.994897"><ele>5.7</ele></trkpt>
<trkpt lat="37.509048" lon="126.994751"><ele>5.6</ele></trkpt>
<trkpt lat="37.508968" lon="126.994596"><ele>5.5</ele></trkpt>
<trkpt lat="37.508910" lon="126.994435"><ele>5.5</ele></trkpt>
<trkpt lat="37.508875" lon="126.994285"><ele>5.5</ele></trkpt>
<trkpt lat="37.508856" lon="126.994109"><ele>5.6</ele></trkpt>
<trkpt lat="37.508855" lon="126.993896"><ele>5.7</ele></trkpt>
<trkpt lat="37.508896" lon="126.993644"><ele>5.5</ele></trkpt>
<trkpt lat="37.508909" lon="126.993505"><ele>5.5</ele></trkpt>
<trkpt lat="37.508903" lon="126.993352"><ele>5.3</ele></trkpt>
<trkpt lat="37.508872" lon="126.993183"><ele>5.3</ele></trkpt>
<trkpt lat="37.508802" lon="126.992994"><ele>5.3</ele></trkpt>
<trkpt lat="37.508728" lon="126.992864"><ele>5.1</ele></trkpt>
<trkpt lat="37.508652" lon="126.992767"><ele>5.1</ele></trkpt>
<trkpt lat="37.508570" lon="126.992669"><ele>5.0</ele></trkpt>
<trkpt lat="37.508422" lon="126.992529"><ele>4.9</ele></trkpt>
<trkpt lat="37.508253" lon="126.992382"><ele>4.8</ele></trkpt>
<trkpt lat="37.507995" lon="126.992208"><ele>4.6</ele></trkpt>
<trkpt lat="37.507803" lon="126.992097"><ele>4.5</ele></trkpt>
<trkpt lat="37.507638" lon="126.991932"><ele>4.3</ele></trkpt>
<trkpt lat="37.507513" lon="126.991788"><ele>4.3</ele></trkpt>
<trkpt lat="37.507429" lon="126.991667"><ele>4.3</ele></trkpt>
<trkpt lat="37.507328" lon="126.991508"><ele>4.5</ele></trkpt>
<trkpt lat="37.507257" lon="126.991321"><ele>4.9</ele></trkpt>
<trkpt lat="37.507159" lon="126.991066"><ele>4.9</ele></trkpt>
<trkpt lat="37.506791" lon="126.990093"><ele>5.3</ele></trkpt>
<trkpt lat="37.506681" lon="126.989800"><ele>5.4</ele></trkpt>
<trkpt lat="37.506633" lon="126.989604"><ele>5.4</ele></trkpt>
<trkpt lat="37.506625" lon="126.989390"><ele>5.5</ele></trkpt>
<trkpt lat="37.506559" lon="126.989279"><ele>5.5</ele></trkpt>
<trkpt lat="37.506451" lon="126.989027"><ele>5.7</ele></trkpt>
<trkpt lat="37.506400" lon="126.988674"><ele>5.8</ele></trkpt>
<trkpt lat="37.506336" lon="126.988326"><ele>5.8</ele></trkpt>
<trkpt lat="37.506305" lon="126.988158"><ele>5.8</ele></trkpt>
<trkpt lat="37.506253" lon="126.987678"><ele>6.0</ele></trkpt>
<trkpt lat="37.506151" lon="126.987064"><ele>6.3</ele></trkpt>
<trkpt lat="37.506070" lon="126.986596"><ele>6.7</ele></trkpt>
<trkpt lat="37.505965" lon="126.985969"><ele>7.1</ele></trkpt>
<trkpt lat="37.505885" lon="126.985633"><ele>7.3</ele></trkpt>
<trkpt lat="37.505775" lon="126.985350"><ele>7.4</ele></trkpt>
<trkpt lat="37.505712" lon="126.985051"><ele>7.3</ele></trkpt>
<trkpt lat="37.505668" lon="126.984798"><ele>7.4</ele></trkpt>
<trkpt lat="37.505597" lon="126.984469"><ele>7.4</ele></trkpt>
<trkpt lat="37.505544" lon="126.984009"><ele>7.6</ele></trkpt>
<trkpt lat="37.505489" lon="126.983542"><ele>9.6</ele></trkpt>
<trkpt lat="37.505475" lon="126.983272"><ele>11.4</ele></trkpt>
<trkpt lat="37.505479" lon="126.983027"><ele>12.2</ele></trkpt>
<trkpt lat="37.505489" lon="126.982836"><ele>12.3</ele></trkpt>
<trkpt lat="37.505506" lon="126.982648"><ele>12.5</ele></trkpt>
<trkpt lat="37.505538" lon="126.982404"><ele>12.8</ele></trkpt>
<trkpt lat="37.505567" lon="126.982105"><ele>13.1</ele></trkpt>
<trkpt lat="37.505584" lon="126.981819"><ele>12.6</ele></trkpt>
<trkpt lat="37.505580" lon="126.981606"><ele>12.4</ele></trkpt>
<trkpt lat="37.505546" lon="126.981383"><ele>11.9</ele></trkpt>
<trkpt lat="37.505514" lon="126.981239"><ele>11.4</ele></trkpt>
<trkpt lat="37.505440" lon="126.981072"><ele>11.4</ele></trkpt>
<trkpt lat="37.505394" lon="126.980929"><ele>11.6</ele></trkpt>
<trkpt lat="37.505377" lon="126.980723"><ele>11.8</ele></trkpt>
<trkpt lat="37.505402" lon="126.980543"><ele>12.1</ele></trkpt>
<trkpt lat="37.505464" lon="126.980345"><ele>11.6</ele></trkpt>
<trkpt lat="37.505537" lon="126.980092"><ele>11.5</ele></trkpt>
<trkpt lat="37.505604" lon="126.979792"><ele>11.4</ele></trkpt>
<trkpt lat="37.505619" lon="126.979532"><ele>11.3</ele></trkpt>
<trkpt lat="37.505615" lon="126.979350"><ele>10.3</ele></trkpt>
<trkpt lat="37.505616" lon="126.979203"><ele>9.6</ele></trkpt>
<trkpt lat="37.505573" lon="126.979069"><ele>9.3</ele></trkpt>
<trkpt lat="37.505425" lon="126.978337"><ele>5.5</ele></trkpt>
<trkpt lat="37.505410" lon="126.978189"><ele>5.4</ele></trkpt>
<trkpt lat="37.505426" lon="126.978020"><ele>5.0</ele></trkpt>
<trkpt lat="37.505527" lon="126.977840"><ele>4.5</ele></trkpt>
<trkpt lat="37.505766" lon="126.977588"><ele>4.4</ele></trkpt>
<trkpt lat="37.505877" lon="126.977425"><ele>4.4</ele></trkpt>
<trkpt lat="37.505951" lon="126.977219"><ele>4.5</ele></trkpt>
<trkpt lat="37.505978" lon="126.977061"><ele>4.5</ele></trkpt>
<trkpt lat="37.505975" lon="126.976779"><ele>4.5</ele></trkpt>
<trkpt lat="37.505930" lon="126.976538"><ele>4.4</ele></trkpt>
<trkpt lat="37.505880" lon="126.976240"><ele>4.4</ele></trkpt>
<trkpt lat="37.505860" lon="126.976000"><ele>4.6</ele></trkpt>
<trkpt lat="37.505864" lon="126.975769"><ele>4.9</ele></trkpt>
<trkpt lat="37.505883" lon="126.975602"><ele>4.9</ele></trkpt>
<trkpt lat="37.505908" lon="126.975444"><ele>5.2</ele></trkpt>
<trkpt lat="37.505947" lon="126.975271"><ele>6.1</ele></trkpt>
<trkpt lat="37.506089" lon="126.974895"><ele>6.6</ele></trkpt>
<trkpt lat="37.506196" lon="126.974521"><ele>7.4</ele></trkpt>
<trkpt lat="37.506243" lon="126.974393"><ele>7.4</ele></trkpt>
<trkpt lat="37.506284" lon="126.974198"><ele>7.4</ele></trkpt>
<trkpt lat="37.506311" lon="126.974032"><ele>7.2</ele></trkpt>
<trkpt lat="37.506389" lon="126.973702"><ele>7.4</ele></trkpt>
<trkpt lat="37.506516" lon="126.973410"><ele>7.6</ele></trkpt>
<trkpt lat="37.506523" lon="126.973217"><ele>7.6</ele></trkpt>
<trkpt lat="37.506516" lon="126.973410"><ele>7.6</ele></trkpt>
<trkpt lat="37.506389" lon="126.973702"><ele>7.4</ele></trkpt>
<trkpt lat="37.506311" lon="126.974032"><ele>7.2</ele></trkpt>
<trkpt lat="37.506284" lon="126.974198"><ele>7.4</ele></trkpt>
<trkpt lat="37.506243" lon="126.974393"><ele>7.4</ele></trkpt>
<trkpt lat="37.506196" lon="126.974521"><ele>7.4</ele></trkpt>
<trkpt lat="37.506089" lon="126.974895"><ele>6.6</ele></trkpt>
<trkpt lat="37.505947" lon="126.975271"><ele>6.1</ele></trkpt>
<trkpt lat="37.505908" lon="126.975444"><ele>5.2</ele></trkpt>
<trkpt lat="37.505883" lon="126.975602"><ele>4.9</ele></trkpt>
<trkpt lat="37.505864" lon="126.975769"><ele>4.9</ele></trkpt>
<trkpt lat="37.505860" lon="126.976000"><ele>4.7</ele></trkpt>
<trkpt lat="37.505880" lon="126.976240"><ele>4.5</ele></trkpt>
<trkpt lat="37.505930" lon="126.976538"><ele>4.5</ele></trkpt>
<trkpt lat="37.505975" lon="126.976779"><ele>4.6</ele></trkpt>
<trkpt lat="37.505976" lon="126.976958"><ele>4.6</ele></trkpt>
<trkpt lat="37.505951" lon="126.977219"><ele>4.6</ele></trkpt>
<trkpt lat="37.505877" lon="126.977425"><ele>4.5</ele></trkpt>
<trkpt lat="37.505766" lon="126.977588"><ele>4.5</ele></trkpt>
<trkpt lat="37.505596" lon="126.977771"><ele>4.6</ele></trkpt>
<trkpt lat="37.505476" lon="126.977907"><ele>5.1</ele></trkpt>
<trkpt lat="37.505413" lon="126.978071"><ele>5.1</ele></trkpt>
<trkpt lat="37.505411" lon="126.978231"><ele>5.6</ele></trkpt>
<trkpt lat="37.505565" lon="126.979020"><ele>8.7</ele></trkpt>
<trkpt lat="37.505617" lon="126.979142"><ele>9.4</ele></trkpt>
<trkpt lat="37.505607" lon="126.979284"><ele>10.4</ele></trkpt>
<trkpt lat="37.505619" lon="126.979532"><ele>11.4</ele></trkpt>
<trkpt lat="37.505604" lon="126.979792"><ele>11.5</ele></trkpt>
<trkpt lat="37.505560" lon="126.980016"><ele>11.6</ele></trkpt>
<trkpt lat="37.505464" lon="126.980345"><ele>12.1</ele></trkpt>
<trkpt lat="37.505402" lon="126.980543"><ele>12.1</ele></trkpt>
<trkpt lat="37.505377" lon="126.980723"><ele>11.8</ele></trkpt>
<trkpt lat="37.505394" lon="126.980929"><ele>11.6</ele></trkpt>
<trkpt lat="37.505440" lon="126.981072"><ele>11.4</ele></trkpt>
<trkpt lat="37.505514" lon="126.981239"><ele>11.8</ele></trkpt>
<trkpt lat="37.505546" lon="126.981383"><ele>11.9</ele></trkpt>
<trkpt lat="37.505580" lon="126.981606"><ele>12.4</ele></trkpt>
<trkpt lat="37.505584" lon="126.981819"><ele>12.6</ele></trkpt>
<trkpt lat="37.505567" lon="126.982105"><ele>13.1</ele></trkpt>
<trkpt lat="37.505538" lon="126.982400"><ele>12.8</ele></trkpt>
<trkpt lat="37.505506" lon="126.982648"><ele>12.5</ele></trkpt>
<trkpt lat="37.505489" lon="126.982836"><ele>12.3</ele></trkpt>
<trkpt lat="37.505479" lon="126.983027"><ele>12.2</ele></trkpt>
<trkpt lat="37.505475" lon="126.983272"><ele>11.4</ele></trkpt>
<trkpt lat="37.505489" lon="126.983542"><ele>9.6</ele></trkpt>
<trkpt lat="37.505544" lon="126.984009"><ele>7.6</ele></trkpt>
<trkpt lat="37.505597" lon="126.984469"><ele>7.4</ele></trkpt>
<trkpt lat="37.505668" lon="126.984798"><ele>7.4</ele></trkpt>
<trkpt lat="37.505712" lon="126.985051"><ele>7.3</ele></trkpt>
<trkpt lat="37.505775" lon="126.985350"><ele>7.4</ele></trkpt>
<trkpt lat="37.505885" lon="126.985633"><ele>7.3</ele></trkpt>
<trkpt lat="37.505965" lon="126.985969"><ele>7.1</ele></trkpt>
<trkpt lat="37.506070" lon="126.986596"><ele>6.7</ele></trkpt>
<trkpt lat="37.506151" lon="126.987064"><ele>6.3</ele></trkpt>
<trkpt lat="37.506253" lon="126.987678"><ele>6.0</ele></trkpt>
<trkpt lat="37.506305" lon="126.988158"><ele>5.8</ele></trkpt>
<trkpt lat="37.506336" lon="126.988326"><ele>5.8</ele></trkpt>
<trkpt lat="37.506399" lon="126.988670"><ele>5.8</ele></trkpt>
<trkpt lat="37.506451" lon="126.989027"><ele>5.7</ele></trkpt>
<trkpt lat="37.506481" lon="126.989187"><ele>5.7</ele></trkpt>
<trkpt lat="37.506598" lon="126.989319"><ele>5.5</ele></trkpt>
<trkpt lat="37.506618" lon="126.989492"><ele>5.4</ele></trkpt>
<trkpt lat="37.506681" lon="126.989800"><ele>5.4</ele></trkpt>
<trkpt lat="37.506791" lon="126.990093"><ele>5.3</ele></trkpt>
<trkpt lat="37.507159" lon="126.991066"><ele>4.9</ele></trkpt>
<trkpt lat="37.507257" lon="126.991321"><ele>4.7</ele></trkpt>
<trkpt lat="37.507328" lon="126.991508"><ele>4.5</ele></trkpt>
<trkpt lat="37.507429" lon="126.991667"><ele>4.3</ele></trkpt>
<trkpt lat="37.507513" lon="126.991788"><ele>4.3</ele></trkpt>
<trkpt lat="37.507638" lon="126.991932"><ele>4.3</ele></trkpt>
<trkpt lat="37.507787" lon="126.992080"><ele>4.5</ele></trkpt>
<trkpt lat="37.507995" lon="126.992208"><ele>4.6</ele></trkpt>
<trkpt lat="37.508253" lon="126.992382"><ele>4.8</ele></trkpt>
<trkpt lat="37.508422" lon="126.992529"><ele>4.9</ele></trkpt>
<trkpt lat="37.508570" lon="126.992669"><ele>5.0</ele></trkpt>
<trkpt lat="37.508652" lon="126.992767"><ele>5.1</ele></trkpt>
<trkpt lat="37.508728" lon="126.992864"><ele>5.1</ele></trkpt>
<trkpt lat="37.508802" lon="126.992994"><ele>5.3</ele></trkpt>
<trkpt lat="37.508872" lon="126.993183"><ele>5.3</ele></trkpt>
<trkpt lat="37.508903" lon="126.993352"><ele>5.3</ele></trkpt>
<trkpt lat="37.508909" lon="126.993505"><ele>5.5</ele></trkpt>
<trkpt lat="37.508896" lon="126.993644"><ele>5.5</ele></trkpt>
<trkpt lat="37.508866" lon="126.993786"><ele>5.7</ele></trkpt>
<trkpt lat="37.508856" lon="126.994080"><ele>5.7</ele></trkpt>
<trkpt lat="37.508875" lon="126.994285"><ele>5.5</ele></trkpt>
<trkpt lat="37.508910" lon="126.994435"><ele>5.5</ele></trkpt>
<trkpt lat="37.508968" lon="126.994596"><ele>5.5</ele></trkpt>
<trkpt lat="37.509048" lon="126.994751"><ele>5.6</ele></trkpt>
<trkpt lat="37.509163" lon="126.994897"><ele>5.7</ele></trkpt>
<trkpt lat="37.509288" lon="126.995007"><ele>5.8</ele></trkpt>
<trkpt lat="37.509415" lon="126.995080"><ele>5.8</ele></trkpt>
<trkpt lat="37.509598" lon="126.995144"><ele>6.0</ele></trkpt>
<trkpt lat="37.509733" lon="126.995180"><ele>6.0</ele></trkpt>
<trkpt lat="37.509923" lon="126.995279"><ele>6.0</ele></trkpt>
<trkpt lat="37.510021" lon="126.995362"><ele>6.0</ele></trkpt>
<trkpt lat="37.510115" lon="126.995456"><ele>6.1</ele></trkpt>
<trkpt lat="37.510194" lon="126.995555"><ele>6.2</ele></trkpt>
<trkpt lat="37.510287" lon="126.995681"><ele>6.2</ele></trkpt>
<trkpt lat="37.510348" lon="126.995804"><ele>6.2</ele></trkpt>
<trkpt lat="37.510405" lon="126.995935"><ele>6.2</ele></trkpt>
<trkpt lat="37.510448" lon="126.996061"><ele>6.2</ele></trkpt>
<trkpt lat="37.510497" lon="126.996351"><ele>6.3</ele></trkpt>
<trkpt lat="37.510503" lon="126.996495"><ele>6.2</ele></trkpt>
<trkpt lat="37.510482" lon="126.996756"><ele>6.2</ele></trkpt>
<trkpt lat="37.510441" lon="126.997114"><ele>6.1</ele></trkpt>
<trkpt lat="37.510441" lon="126.997311"><ele>6.1</ele></trkpt>
<trkpt lat="37.510464" lon="126.997505"><ele>6.2</ele></trkpt>
<trkpt lat="37.510531" lon="126.997678"><ele>6.3</ele></trkpt>
<trkpt lat="37.510602" lon="126.997818"><ele>6.5</ele></trkpt>
<trkpt lat="37.510832" lon="126.998156"><ele>7.0</ele></trkpt>
<trkpt lat="37.510895" lon="126.998241"><ele>7.1</ele></trkpt>
</trkseg></trk></gpx>
