<?xml version="1.0" encoding="UTF-8"?>
<gpx version="1.1" creator="Runvis" xmlns="http://www.topografix.com/GPX/1/1">
<trk><name>탄천</name><trkseg>
<trkpt lat="37.488804" lon="127.106754"><ele>15.6</ele></trkpt>
<trkpt lat="37.488695" lon="127.106850"><ele>15.6</ele></trkpt>
<trkpt lat="37.488604" lon="127.106941"><ele>15.6</ele></trkpt>
<trkpt lat="37.488532" lon="127.107121"><ele>15.6</ele></trkpt>
<trkpt lat="37.488539" lon="127.107342"><ele>15.6</ele></trkpt>
<trkpt lat="37.488661" lon="127.107683"><ele>15.6</ele></trkpt>
<trkpt lat="37.488846" lon="127.108126"><ele>15.6</ele></trkpt>
<trkpt lat="37.489023" lon="127.108548"><ele>16.1</ele></trkpt>
<trkpt lat="37.489122" lon="127.106540"><ele>14.9</ele></trkpt>
<trkpt lat="37.489252" lon="127.106444"><ele>14.9</ele></trkpt>
<trkpt lat="37.489462" lon="127.106310"><ele>15.6</ele></trkpt>
<trkpt lat="37.489646" lon="127.106204"><ele>15.6</ele></trkpt>
<trkpt lat="37.489854" lon="127.106065"><ele>15.2</ele></trkpt>
<trkpt lat="37.489927" lon="127.105961"><ele>14.9</ele></trkpt>
<trkpt lat="37.490198" lon="127.105574"><ele>15.1</ele></trkpt>
<trkpt lat="37.490387" lon="127.105355"><ele>15.2</ele></trkpt>
<trkpt lat="37.490741" lon="127.104938"><ele>14.2</ele></trkpt>
<trkpt lat="37.491009" lon="127.104610"><ele>14.2</ele></trkpt>
<trkpt lat="37.491195" lon="127.104377"><ele>14.2</ele></trkpt>
<trkpt lat="37.491434" lon="127.104079"><ele>14.6</ele></trkpt>
<trkpt lat="37.491610" lon="127.103859"><ele>14.6</ele></trkpt>
<trkpt lat="37.491771" lon="127.103616"><ele>14.3</ele></trkpt>
<trkpt lat="37.491838" lon="127.103493"><ele>14.3</ele></trkpt>
<trkpt lat="37.491993" lon="127.103186"><ele>13.8</ele></trkpt>
<trkpt lat="37.492085" lon="127.103009"><ele>13.8</ele></trkpt>
<trkpt lat="37.492187" lon="127.102830"><ele>14.2</ele></trkpt>
<trkpt lat="37.492322" lon="127.102428"><ele>14.4</ele></trkpt>
<trkpt lat="37.492418" lon="127.102228"><ele>14.1</ele></trkpt>
<trkpt lat="37.492568" lon="127.101935"><ele>13.2</ele></trkpt>
<trkpt lat="37.492687" lon="127.101707"><ele>13.2</ele></trkpt>
<trkpt lat="37.493066" lon="127.100941"><ele>13.4</ele></trkpt>
<trkpt lat="37.493358" lon="127.100387"><ele>13.3</ele></trkpt>
<trkpt lat="37.493484" lon="127.100049"><ele>12.6</ele></trkpt>
<trkpt lat="37.493554" lon="127.099933"><ele>12.7</ele></trkpt>
<trkpt lat="37.493666" lon="127.099726"><ele>12.5</ele></trkpt>
<trkpt lat="37.493760" lon="127.099566"><ele>12.5</ele></trkpt>
<trkpt lat="37.493840" lon="127.099354"><ele>12.5</ele></trkpt>
<trkpt lat="37.494005" lon="127.098908"><ele>12.1</ele></trkpt>
<trkpt lat="37.494260" lon="127.098295"><ele>12.8</ele></trkpt>
<trkpt lat="37.494436" lon="127.097788"><ele>12.3</ele></trkpt>
<trkpt lat="37.494764" lon="127.096979"><ele>12.0</ele></trkpt>
<trkpt lat="37.494975" lon="127.096394"><ele>11.8</ele></trkpt>
<trkpt lat="37.495081" lon="127.096068"><ele>12.0</ele></trkpt>
<trkpt lat="37.495199" lon="127.095750"><ele>11.6</ele></trkpt>
<trkpt lat="37.495415" lon="127.095227"><ele>11.8</ele></trkpt>
<trkpt lat="37.495504" lon="127.094948"><ele>11.4</ele></trkpt>
<trkpt lat="37.495569" lon="127.094671"><ele>11.0</ele></trkpt>
<trkpt lat="37.495855" lon="127.093829"><ele>10.8</ele></trkpt>
<trkpt lat="37.496115" lon="127.093082"><ele>10.5</ele></trkpt>
<trkpt lat="37.496198" lon="127.092693"><ele>9.7</ele></trkpt>
<trkpt lat="37.496259" lon="127.092499"><ele>9.2</ele></trkpt>
<trkpt lat="37.496339" lon="127.092350"><ele>9.2</ele></trkpt>
<trkpt lat="37.496439" lon="127.092093"><ele>8.9</ele></trkpt>
<trkpt lat="37.496566" lon="127.091771"><ele>8.9</ele></trkpt>
<trkpt lat="37.496683" lon="127.091428"><ele>9.5</ele></trkpt>
<trkpt lat="37.496927" lon="127.090757"><ele>9.9</ele></trkpt>
<trkpt lat="37.497148" lon="127.090022"><ele>9.3</ele></trkpt>
<trkpt lat="37.497306" lon="127.089513"><ele>8.8</ele></trkpt>
<trkpt lat="37.497484" lon="127.089000"><ele>9.0</ele></trkpt>
<trkpt lat="37.497590" lon="127.088741"><ele>9.0</ele></trkpt>
<trkpt lat="37.497682" lon="127.088603"><ele>9.3</ele></trkpt>
<trkpt lat="37.497798" lon="127.088476"><ele>9.3</ele></trkpt>
<trkpt lat="37.497874" lon="127.088302"><ele>9.3</ele></trkpt>
<trkpt lat="37.497920" lon="127.087979"><ele>9.7</ele></trkpt>
<trkpt lat="37.497949" lon="127.087694"><ele>9.4</ele></trkpt>
<trkpt lat="37.497991" lon="127.087493"><ele>9.2</ele></trkpt>
<trkpt lat="37.498577" lon="127.085777"><ele>9.3</ele></trkpt>
<trkpt lat="37.498624" lon="127.085632"><ele>9.3</ele></trkpt>
<trkpt lat="37.498661" lon="127.085484"><ele>9.0</ele></trkpt>
<trkpt lat="37.498698" lon="127.085252"><ele>9.0</ele></trkpt>
<trkpt lat="37.498741" lon="127.085084"><ele>9.0</ele></trkpt>
<trkpt lat="37.498791" lon="127.084932"><ele>9.0</ele></trkpt>
<trkpt lat="37.498910" lon="127.084678"><ele>8.9</ele></trkpt>
<trkpt lat="37.499264" lon="127.083452"><ele>10.2</ele></trkpt>
<trkpt lat="37.499481" lon="127.082594"><ele>11.7</ele></trkpt>
<trkpt lat="37.499617" lon="127.082124"><ele>9.9</ele></trkpt>
<trkpt lat="37.499788" lon="127.081478"><ele>9.4</ele></trkpt>
<trkpt lat="37.499935" lon="127.080954"><ele>9.9</ele></trkpt>
<trkpt lat="37.500088" lon="127.080412"><ele>10.2</ele></trkpt>
<trkpt lat="37.500153" lon="127.080187"><ele>10.2</ele></trkpt>
<trkpt lat="37.500238" lon="127.079897"><ele>9.9</ele></trkpt>
<trkpt lat="37.500325" lon="127.079576"><ele>9.9</ele></trkpt>
<trkpt lat="37.500453" lon="127.079052"><ele>9.3</ele></trkpt>
<trkpt lat="37.500469" lon="127.078890"><ele>9.3</ele></trkpt>
<trkpt lat="37.500483" lon="127.078750"><ele>8.6</ele></trkpt>
<trkpt lat="37.500558" lon="127.078327"><ele>8.2</ele></trkpt>
<trkpt lat="37.500930" lon="127.076472"><ele>6.6</ele></trkpt>
<trkpt lat="37.501008" lon="127.075992"><ele>6.6</ele></trkpt>
<trkpt lat="37.501039" lon="127.075643"><ele>6.6</ele></trkpt>
<trkpt lat="37.501033" lon="127.075494"><ele>6.6</ele></trkpt>
<trkpt lat="37.501004" lon="127.075342"><ele>6.6</ele></trkpt>
<trkpt lat="37.500948" lon="127.075103"><ele>6.6</ele></trkpt>
<trkpt lat="37.500888" lon="127.074872"><ele>6.6</ele></trkpt>
<trkpt lat="37.500805" lon="127.074609"><ele>6.6</ele></trkpt>
<trkpt lat="37.500727" lon="127.074463"><ele>7.3</ele></trkpt>
<trkpt lat="37.500596" lon="127.074216"><ele>8.1</ele></trkpt>
<trkpt lat="37.500527" lon="127.074100"><ele>8.7</ele></trkpt>
<trkpt lat="37.500403" lon="127.073950"><ele>8.7</ele></trkpt>
<trkpt lat="37.500355" lon="127.073777"><ele>9.1</ele></trkpt>
<trkpt lat="37.500374" lon="127.073513"><ele>9.6</ele></trkpt>
<trkpt lat="37.500495" lon="127.072396"><ele>12.3</ele></trkpt>
<trkpt lat="37.500544" lon="127.072259"><ele>12.4</ele></trkpt>
<trkpt lat="37.500718" lon="127.072166"><ele>12.5</ele></trkpt>
<trkpt lat="37.501021" lon="127.071909"><ele>13.9</ele></trkpt>
<trkpt lat="37.501189" lon="127.071748"><ele>14.5</ele></trkpt>
<trkpt lat="37.501385" lon="127.071594"><ele>15.3</ele></trkpt>
<trkpt lat="37.501560" lon="127.071454"><ele>14.8</ele></trkpt>
<trkpt lat="37.501729" lon="127.071318"><ele>14.8</ele></trkpt>
<trkpt lat="37.501988" lon="127.071107"><ele>14.8</ele></trkpt>
<trkpt lat="37.502356" lon="127.070753"><ele>13.9</ele></trkpt>
<trkpt lat="37.503007" lon="127.070195"><ele>12.6</ele></trkpt>
<trkpt lat="37.503305" lon="127.069920"><ele>13.2</ele></trkpt>
<trkpt lat="37.503621" lon="127.069647"><ele>13.4</ele></trkpt>
<trkpt lat="37.503870" lon="127.069463"><ele>13.6</ele></trkpt>
<trkpt lat="37.504022" lon="127.069364"><ele>14.2</ele></trkpt>
<trkpt lat="37.504283" lon="127.069218"><ele>14.2</ele></trkpt>
<trkpt lat="37.504425" lon="127.069155"><ele>14.2</ele></trkpt>
<trkpt lat="37.504587" lon="127.069105"><ele>14.6</ele></trkpt>
<trkpt lat="37.504881" lon="127.068989"><ele>14.6</ele></trkpt>
<trkpt lat="37.505492" lon="127.068766"><ele>15.0</ele></trkpt>
<trkpt lat="37.505645" lon="127.068758"><ele>15.7</ele></trkpt>
<trkpt lat="37.506799" lon="127.068556"><ele>13.7</ele></trkpt>
<trkpt lat="37.507386" lon="127.068449"><ele>11.6</ele></trkpt>
<trkpt lat="37.507599" lon="127.068420"><ele>10.2</ele></trkpt>
<trkpt lat="37.507883" lon="127.068469"><ele>10.2</ele></trkpt>
<trkpt lat="37.508186" lon="127.068435"><ele>11.6</ele></trkpt>
<trkpt lat="37.508859" lon="127.068327"><ele>13.9</ele></trkpt>
<trkpt lat="37.509820" lon="127.068173"><ele>19.2</ele></trkpt>
<trkpt lat="37.510021" lon="127.068063"><ele>20.9</ele></trkpt>
<trkpt lat="37.510179" lon="127.067987"><ele>20.9</ele></trkpt>
<trkpt lat="37.510784" lon="127.067901"><ele>23.5</ele></trkpt>
<trkpt lat="37.511053" lon="127.068006"><ele>22.3</ele></trkpt>
<trkpt lat="37.511265" lon="127.067983"><ele>21.4</ele></trkpt>
<trkpt lat="37.512642" lon="127.067748"><ele>17.2</ele></trkpt>
<trkpt lat="37.512873" lon="127.067718"><ele>15.0</ele></trkpt>
<trkpt lat="37.514260" lon="127.067514"><ele>13.4</ele></trkpt>
<trkpt lat="37.515042" lon="127.067406"><ele>12.8</ele></trkpt>
<trkpt lat="37.515335" lon="127.067364"><ele>12.8</ele></trkpt>
<trkpt lat="37.515759" lon="127.067293"><ele>11.3</ele></trkpt>
<trkpt lat="37.516033" lon="127.067242"><ele>11.4</ele></trkpt>
<trkpt lat="37.517424" lon="127.066970"><ele>10.9</ele></trkpt>
<trkpt lat="37.517779" lon="127.066894"><ele>10.3</ele></trkpt>
<trkpt lat="37.517918" lon="127.066855"><ele>8.0</ele></trkpt>
<trkpt lat="37.518124" lon="127.066759"><ele>8.0</ele></trkpt>
<trkpt lat="37.518450" lon="127.066690"><ele>7.4</ele></trkpt>
<trkpt lat="37.517940" lon="127.068045"><ele>6.3</ele></trkpt>
<trkpt lat="37.517437" lon="127.068133"><ele>4.0</ele></trkpt>
<trkpt lat="37.516989" lon="127.068205"><ele>4.8</ele></trkpt>
<trkpt lat="37.516456" lon="127.068294"><ele>4.8</ele></trkpt>
<trkpt lat="37.515439" lon="127.068440"><ele>4.8</ele></trkpt>
<trkpt lat="37.514519" lon="127.068574"><ele>5.0</ele></trkpt>
<trkpt lat="37.513816" lon="127.068680"><ele>4.8</ele></trkpt>
<trkpt lat="37.512978" lon="127.068804"><ele>4.0</ele></trkpt>
<trkpt lat="37.512080" lon="127.068919"><ele>4.2</ele></trkpt>
<trkpt lat="37.510565" lon="127.069129"><ele>4.5</ele></trkpt>
<trkpt lat="37.512873" lon="127.067718"><ele>15.0</ele></trkpt>
</trkseg></trk></gpx>
