<?xml version="1.0" encoding="UTF-8"?>
<gpx version="1.1" creator="Runvis" xmlns="http://www.topografix.com/GPX/1/1">
<trk><name>북악스카이웨이</name><trkseg>
<trkpt lat="37.593106" lon="126.966562"><ele>127.1</ele></trkpt>
<trkpt lat="37.593192" lon="126.966840"><ele>128.5</ele></trkpt>
<trkpt lat="37.593246" lon="126.966983"><ele>130.5</ele></trkpt>
<trkpt lat="37.593410" lon="126.967306"><ele>132.2</ele></trkpt>
<trkpt lat="37.593521" lon="126.967496"><ele>133.5</ele></trkpt>
<trkpt lat="37.593666" lon="126.967672"><ele>134.5</ele></trkpt>
<trkpt lat="37.593820" lon="126.967846"><ele>135.4</ele></trkpt>
<trkpt lat="37.593906" lon="126.968055"><ele>136.2</ele></trkpt>
<trkpt lat="37.593951" lon="126.968276"><ele>136.9</ele></trkpt>
<trkpt lat="37.594030" lon="126.968570"><ele>139.7</ele></trkpt>
<trkpt lat="37.594161" lon="126.968850"><ele>141.8</ele></trkpt>
<trkpt lat="37.594313" lon="126.969127"><ele>143.8</ele></trkpt>
<trkpt lat="37.594429" lon="126.969361"><ele>147.7</ele></trkpt>
<trkpt lat="37.594567" lon="126.969594"><ele>152.7</ele></trkpt>
<trkpt lat="37.594702" lon="126.969736"><ele>155.6</ele></trkpt>
<trkpt lat="37.594810" lon="126.969836"><ele>158.6</ele></trkpt>
<trkpt lat="37.594991" lon="126.969936"><ele>161.5</ele></trkpt>
<trkpt lat="37.595122" lon="126.969917"><ele>163.3</ele></trkpt>
<trkpt lat="37.595333" lon="126.969877"><ele>166.4</ele></trkpt>
<trkpt lat="37.595740" lon="126.969730"><ele>170.3</ele></trkpt>
<trkpt lat="37.595854" lon="126.969692"><ele>172.7</ele></trkpt>
<trkpt lat="37.596097" lon="126.969621"><ele>175.3</ele></trkpt>
<trkpt lat="37.596239" lon="126.969603"><ele>175.2</ele></trkpt>
<trkpt lat="37.596385" lon="126.969612"><ele>176.5</ele></trkpt>
<trkpt lat="37.596516" lon="126.969646"><ele>177.8</ele></trkpt>
<trkpt lat="37.596651" lon="126.969747"><ele>179.1</ele></trkpt>
<trkpt lat="37.596850" lon="126.970000"><ele>180.9</ele></trkpt>
<trkpt lat="37.597032" lon="126.970245"><ele>181.9</ele></trkpt>
<trkpt lat="37.597237" lon="126.970514"><ele>182.4</ele></trkpt>
<trkpt lat="37.597315" lon="126.970625"><ele>183.7</ele></trkpt>
<trkpt lat="37.597419" lon="126.970754"><ele>184.2</ele></trkpt>
<trkpt lat="37.597576" lon="126.970801"><ele>184.2</ele></trkpt>
<trkpt lat="37.597709" lon="126.970737"><ele>184.2</ele></trkpt>
<trkpt lat="37.597844" lon="126.970610"><ele>184.7</ele></trkpt>
<trkpt lat="37.597935" lon="126.970406"><ele>185.2</ele></trkpt>
<trkpt lat="37.597942" lon="126.970224"><ele>185.4</ele></trkpt>
<trkpt lat="37.597894" lon="126.970030"><ele>185.4</ele></trkpt>
<trkpt lat="37.597810" lon="126.969919"><ele>185.8</ele></trkpt>
<trkpt lat="37.597706" lon="126.969847"><ele>186.5</ele></trkpt>
<trkpt lat="37.597590" lon="126.969820"><ele>186.1</ele></trkpt>
<trkpt lat="37.597443" lon="126.969837"><ele>186.8</ele></trkpt>
<trkpt lat="37.597308" lon="126.969931"><ele>186.4</ele></trkpt>
<trkpt lat="37.597210" lon="126.970108"><ele>187.2</ele></trkpt>
<trkpt lat="37.596961" lon="126.970595"><ele>190.0</ele></trkpt>
<trkpt lat="37.596883" lon="126.970721"><ele>192.4</ele></trkpt>
<trkpt lat="37.596825" lon="126.970836"><ele>194.8</ele></trkpt>
<trkpt lat="37.596642" lon="126.971196"><ele>197.5</ele></trkpt>
<trkpt lat="37.596585" lon="126.971379"><ele>198.4</ele></trkpt>
<trkpt lat="37.596544" lon="126.971568"><ele>200.8</ele></trkpt>
<trkpt lat="37.596479" lon="126.971978"><ele>203.1</ele></trkpt>
<trkpt lat="37.596370" lon="126.972680"><ele>205.9</ele></trkpt>
<trkpt lat="37.596389" lon="126.972851"><ele>208.2</ele></trkpt>
<trkpt lat="37.596450" lon="126.972967"><ele>210.4</ele></trkpt>
<trkpt lat="37.596692" lon="126.973189"><ele>213.1</ele></trkpt>
<trkpt lat="37.597035" lon="126.973483"><ele>217.6</ele></trkpt>
<trkpt lat="37.597169" lon="126.973687"><ele>218.9</ele></trkpt>
<trkpt lat="37.597257" lon="126.973827"><ele>220.8</ele></trkpt>
<trkpt lat="37.597390" lon="126.974100"><ele>221.9</ele></trkpt>
<trkpt lat="37.597500" lon="126.974241"><ele>222.9</ele></trkpt>
<trkpt lat="37.597633" lon="126.974305"><ele>222.9</ele></trkpt>
<trkpt lat="37.597765" lon="126.974287"><ele>223.5</ele></trkpt>
<trkpt lat="37.597868" lon="126.974228"><ele>224.1</ele></trkpt>
<trkpt lat="37.598136" lon="126.973990"><ele>225.6</ele></trkpt>
<trkpt lat="37.598295" lon="126.973836"><ele>225.8</ele></trkpt>
<trkpt lat="37.598386" lon="126.973747"><ele>225.8</ele></trkpt>
<trkpt lat="37.598482" lon="126.973626"><ele>226.7</ele></trkpt>
<trkpt lat="37.598592" lon="126.973526"><ele>226.9</ele></trkpt>
<trkpt lat="37.598770" lon="126.973465"><ele>227.1</ele></trkpt>
<trkpt lat="37.598905" lon="126.973367"><ele>226.7</ele></trkpt>
<trkpt lat="37.599050" lon="126.973233"><ele>226.3</ele></trkpt>
<trkpt lat="37.599173" lon="126.973116"><ele>225.8</ele></trkpt>
<trkpt lat="37.599329" lon="126.973000"><ele>225.4</ele></trkpt>
<trkpt lat="37.599564" lon="126.972856"><ele>225.1</ele></trkpt>
<trkpt lat="37.599694" lon="126.972765"><ele>225.2</ele></trkpt>
<trkpt lat="37.599835" lon="126.972728"><ele>225.2</ele></trkpt>
<trkpt lat="37.599991" lon="126.972772"><ele>226.0</ele></trkpt>
<trkpt lat="37.600138" lon="126.972896"><ele>227.5</ele></trkpt>
<trkpt lat="37.600223" lon="126.972985"><ele>226.8</ele></trkpt>
<trkpt lat="37.600323" lon="126.973088"><ele>227.2</ele></trkpt>
<trkpt lat="37.600397" lon="126.973218"><ele>228.1</ele></trkpt>
<trkpt lat="37.600412" lon="126.973408"><ele>228.5</ele></trkpt>
<trkpt lat="37.600333" lon="126.973619"><ele>230.0</ele></trkpt>
<trkpt lat="37.600233" lon="126.973788"><ele>231.0</ele></trkpt>
<trkpt lat="37.599996" lon="126.974168"><ele>232.7</ele></trkpt>
<trkpt lat="37.599816" lon="126.974417"><ele>233.9</ele></trkpt>
<trkpt lat="37.599762" lon="126.974543"><ele>234.2</ele></trkpt>
<trkpt lat="37.599736" lon="126.974692"><ele>234.5</ele></trkpt>
<trkpt lat="37.599710" lon="126.975014"><ele>237.1</ele></trkpt>
<trkpt lat="37.599681" lon="126.975148"><ele>238.6</ele></trkpt>
<trkpt lat="37.599645" lon="126.975323"><ele>240.6</ele></trkpt>
<trkpt lat="37.599648" lon="126.975564"><ele>242.2</ele></trkpt>
<trkpt lat="37.599713" lon="126.975695"><ele>243.9</ele></trkpt>
<trkpt lat="37.599833" lon="126.975748"><ele>245.6</ele></trkpt>
<trkpt lat="37.600058" lon="126.975732"><ele>245.9</ele></trkpt>
<trkpt lat="37.600180" lon="126.975727"><ele>247.3</ele></trkpt>
<trkpt lat="37.600415" lon="126.975734"><ele>250.9</ele></trkpt>
<trkpt lat="37.600633" lon="126.975748"><ele>252.8</ele></trkpt>
<trkpt lat="37.600862" lon="126.975762"><ele>253.9</ele></trkpt>
<trkpt lat="37.600989" lon="126.975807"><ele>254.2</ele></trkpt>
<trkpt lat="37.601091" lon="126.975911"><ele>256.0</ele></trkpt>
<trkpt lat="37.601134" lon="126.976089"><ele>257.7</ele></trkpt>
<trkpt lat="37.601117" lon="126.976231"><ele>259.5</ele></trkpt>
<trkpt lat="37.601067" lon="126.976402"><ele>261.2</ele></trkpt>
<trkpt lat="37.601005" lon="126.976548"><ele>263.0</ele></trkpt>
<trkpt lat="37.600786" lon="126.976891"><ele>266.4</ele></trkpt>
<trkpt lat="37.600732" lon="126.977025"><ele>266.9</ele></trkpt>
<trkpt lat="37.600746" lon="126.977165"><ele>268.7</ele></trkpt>
<trkpt lat="37.600888" lon="126.977336"><ele>270.4</ele></trkpt>
<trkpt lat="37.600993" lon="126.977423"><ele>270.7</ele></trkpt>
<trkpt lat="37.601244" lon="126.977531"><ele>273.7</ele></trkpt>
<trkpt lat="37.601402" lon="126.977645"><ele>274.7</ele></trkpt>
<trkpt lat="37.601418" lon="126.977796"><ele>275.8</ele></trkpt>
<trkpt lat="37.601323" lon="126.977956"><ele>277.9</ele></trkpt>
<trkpt lat="37.601199" lon="126.978082"><ele>279.2</ele></trkpt>
<trkpt lat="37.601079" lon="126.978232"><ele>280.7</ele></trkpt>
<trkpt lat="37.600994" lon="126.978468"><ele>280.8</ele></trkpt>
<trkpt lat="37.601013" lon="126.978608"><ele>280.5</ele></trkpt>
<trkpt lat="37.601063" lon="126.978760"><ele>280.8</ele></trkpt>
<trkpt lat="37.601148" lon="126.978999"><ele>282.4</ele></trkpt>
<trkpt lat="37.601183" lon="126.979136"><ele>283.6</ele></trkpt>
<trkpt lat="37.601271" lon="126.979850"><ele>283.5</ele></trkpt>
<trkpt lat="37.601286" lon="126.980001"><ele>283.5</ele></trkpt>
<trkpt lat="37.601333" lon="126.980472"><ele>282.3</ele></trkpt>
<trkpt lat="37.601390" lon="126.980819"><ele>282.7</ele></trkpt>
<trkpt lat="37.601333" lon="126.980472"><ele>282.3</ele></trkpt>
<trkpt lat="37.601286" lon="126.980001"><ele>283.5</ele></trkpt>
<trkpt lat="37.601271" lon="126.979850"><ele>283.5</ele></trkpt>
<trkpt lat="37.601183" lon="126.979136"><ele>283.6</ele></trkpt>
<trkpt lat="37.601148" lon="126.978999"><ele>282.4</ele></trkpt>
<trkpt lat="37.601063" lon="126.978760"><ele>281.2</ele></trkpt>
<trkpt lat="37.601013" lon="126.978608"><ele>280.8</ele></trkpt>
<trkpt lat="37.600994" lon="126.978468"><ele>281.2</ele></trkpt>
<trkpt lat="37.601079" lon="126.978232"><ele>280.7</ele></trkpt>
<trkpt lat="37.601199" lon="126.978082"><ele>279.2</ele></trkpt>
<trkpt lat="37.601323" lon="126.977956"><ele>277.9</ele></trkpt>
<trkpt lat="37.601418" lon="126.977796"><ele>275.8</ele></trkpt>
<trkpt lat="37.601402" lon="126.977645"><ele>274.7</ele></trkpt>
<trkpt lat="37.601244" lon="126.977531"><ele>273.7</ele></trkpt>
<trkpt lat="37.600993" lon="126.977423"><ele>270.7</ele></trkpt>
<trkpt lat="37.600888" lon="126.977336"><ele>270.4</ele></trkpt>
<trkpt lat="37.600800" lon="126.977246"><ele>269.0</ele></trkpt>
<trkpt lat="37.600732" lon="126.977106"><ele>267.4</ele></trkpt>
<trkpt lat="37.600749" lon="126.976955"><ele>266.9</ele></trkpt>
<trkpt lat="37.601005" lon="126.976548"><ele>262.3</ele></trkpt>
<trkpt lat="37.601067" lon="126.976402"><ele>260.6</ele></trkpt>
<trkpt lat="37.601117" lon="126.976231"><ele>259.0</ele></trkpt>
<trkpt lat="37.601134" lon="126.976089"><ele>257.3</ele></trkpt>
<trkpt lat="37.601091" lon="126.975911"><ele>256.0</ele></trkpt>
<trkpt lat="37.600989" lon="126.975807"><ele>254.2</ele></trkpt>
<trkpt lat="37.600862" lon="126.975762"><ele>253.9</ele></trkpt>
<trkpt lat="37.600633" lon="126.975748"><ele>252.8</ele></trkpt>
<trkpt lat="37.600415" lon="126.975734"><ele>250.9</ele></trkpt>
<trkpt lat="37.600180" lon="126.975727"><ele>245.9</ele></trkpt>
<trkpt lat="37.600058" lon="126.975732"><ele>245.9</ele></trkpt>
<trkpt lat="37.599907" lon="126.975755"><ele>245.9</ele></trkpt>
<trkpt lat="37.599769" lon="126.975728"><ele>244.3</ele></trkpt>
<trkpt lat="37.599678" lon="126.975642"><ele>243.9</ele></trkpt>
<trkpt lat="37.599637" lon="126.975457"><ele>241.2</ele></trkpt>
<trkpt lat="37.599664" lon="126.975223"><ele>238.9</ele></trkpt>
<trkpt lat="37.599710" lon="126.975014"><ele>237.4</ele></trkpt>
<trkpt lat="37.599732" lon="126.974819"><ele>235.9</ele></trkpt>
<trkpt lat="37.599762" lon="126.974543"><ele>234.6</ele></trkpt>
<trkpt lat="37.599816" lon="126.974417"><ele>234.2</ele></trkpt>
<trkpt lat="37.599996" lon="126.974168"><ele>233.3</ele></trkpt>
<trkpt lat="37.600233" lon="126.973788"><ele>231.4</ele></trkpt>
<trkpt lat="37.600333" lon="126.973619"><ele>229.5</ele></trkpt>
<trkpt lat="37.600389" lon="126.973482"><ele>229.5</ele></trkpt>
<trkpt lat="37.600415" lon="126.973337"><ele>227.8</ele></trkpt>
<trkpt lat="37.600370" lon="126.973168"><ele>227.5</ele></trkpt>
<trkpt lat="37.600223" lon="126.972985"><ele>227.2</ele></trkpt>
<trkpt lat="37.600138" lon="126.972896"><ele>226.8</ele></trkpt>
<trkpt lat="37.599991" lon="126.972772"><ele>226.3</ele></trkpt>
<trkpt lat="37.599835" lon="126.972728"><ele>225.5</ele></trkpt>
<trkpt lat="37.599694" lon="126.972765"><ele>225.5</ele></trkpt>
<trkpt lat="37.599564" lon="126.972856"><ele>225.5</ele></trkpt>
<trkpt lat="37.599329" lon="126.973000"><ele>225.1</ele></trkpt>
<trkpt lat="37.599173" lon="126.973116"><ele>225.5</ele></trkpt>
<trkpt lat="37.599050" lon="126.973233"><ele>226.3</ele></trkpt>
<trkpt lat="37.598905" lon="126.973367"><ele>226.8</ele></trkpt>
<trkpt lat="37.598770" lon="126.973465"><ele>226.5</ele></trkpt>
<trkpt lat="37.598592" lon="126.973526"><ele>226.3</ele></trkpt>
<trkpt lat="37.598482" lon="126.973626"><ele>226.0</ele></trkpt>
<trkpt lat="37.598386" lon="126.973747"><ele>225.1</ele></trkpt>
<trkpt lat="37.598295" lon="126.973836"><ele>225.1</ele></trkpt>
<trkpt lat="37.598136" lon="126.973990"><ele>224.9</ele></trkpt>
<trkpt lat="37.597957" lon="126.974159"><ele>223.4</ele></trkpt>
<trkpt lat="37.597765" lon="126.974287"><ele>222.8</ele></trkpt>
<trkpt lat="37.597633" lon="126.974305"><ele>222.2</ele></trkpt>
<trkpt lat="37.597500" lon="126.974241"><ele>222.3</ele></trkpt>
<trkpt lat="37.597390" lon="126.974100"><ele>221.2</ele></trkpt>
<trkpt lat="37.597257" lon="126.973827"><ele>220.1</ele></trkpt>
<trkpt lat="37.597169" lon="126.973687"><ele>218.2</ele></trkpt>
<trkpt lat="37.597094" lon="126.973555"><ele>216.8</ele></trkpt>
<trkpt lat="37.596692" lon="126.973189"><ele>212.2</ele></trkpt>
<trkpt lat="37.596500" lon="126.973026"><ele>211.9</ele></trkpt>
<trkpt lat="37.596413" lon="126.972907"><ele>209.1</ele></trkpt>
<trkpt lat="37.596371" lon="126.972733"><ele>206.7</ele></trkpt>
<trkpt lat="37.596479" lon="126.971978"><ele>203.1</ele></trkpt>
<trkpt lat="37.596544" lon="126.971568"><ele>200.8</ele></trkpt>
<trkpt lat="37.596585" lon="126.971379"><ele>198.4</ele></trkpt>
<trkpt lat="37.596642" lon="126.971196"><ele>197.5</ele></trkpt>
<trkpt lat="37.596825" lon="126.970836"><ele>193.5</ele></trkpt>
<trkpt lat="37.596883" lon="126.970721"><ele>191.0</ele></trkpt>
<trkpt lat="37.596961" lon="126.970595"><ele>188.5</ele></trkpt>
<trkpt lat="37.597210" lon="126.970108"><ele>187.2</ele></trkpt>
<trkpt lat="37.597308" lon="126.969931"><ele>186.4</ele></trkpt>
<trkpt lat="37.597443" lon="126.969837"><ele>186.8</ele></trkpt>
<trkpt lat="37.597590" lon="126.969820"><ele>186.1</ele></trkpt>
<trkpt lat="37.597706" lon="126.969847"><ele>186.5</ele></trkpt>
<trkpt lat="37.597810" lon="126.969919"><ele>185.8</ele></trkpt>
<trkpt lat="37.597894" lon="126.970030"><ele>185.4</ele></trkpt>
<trkpt lat="37.597942" lon="126.970224"><ele>185.4</ele></trkpt>
<trkpt lat="37.597935" lon="126.970406"><ele>185.2</ele></trkpt>
<trkpt lat="37.597844" lon="126.970610"><ele>184.7</ele></trkpt>
<trkpt lat="37.597709" lon="126.970737"><ele>184.2</ele></trkpt>
<trkpt lat="37.597576" lon="126.970801"><ele>184.2</ele></trkpt>
<trkpt lat="37.597419" lon="126.970754"><ele>184.2</ele></trkpt>
<trkpt lat="37.597315" lon="126.970625"><ele>183.7</ele></trkpt>
<trkpt lat="37.597237" lon="126.970514"><ele>182.4</ele></trkpt>
<trkpt lat="37.597032" lon="126.970245"><ele>181.9</ele></trkpt>
<trkpt lat="37.596850" lon="126.970000"><ele>180.1</ele></trkpt>
<trkpt lat="37.596651" lon="126.969747"><ele>179.9</ele></trkpt>
<trkpt lat="37.596516" lon="126.969646"><ele>178.6</ele></trkpt>
<trkpt lat="37.596385" lon="126.969612"><ele>177.3</ele></trkpt>
<trkpt lat="37.596239" lon="126.969603"><ele>175.9</ele></trkpt>
<trkpt lat="37.596097" lon="126.969621"><ele>176.1</ele></trkpt>
<trkpt lat="37.595854" lon="126.969692"><ele>173.6</ele></trkpt>
<trkpt lat="37.595740" lon="126.969730"><ele>171.2</ele></trkpt>
<trkpt lat="37.595421" lon="126.969856"><ele>167.3</ele></trkpt>
<trkpt lat="37.595201" lon="126.969906"><ele>165.8</ele></trkpt>
<trkpt lat="37.595065" lon="126.969930"><ele>162.3</ele></trkpt>
<trkpt lat="37.594900" lon="126.969896"><ele>161.1</ele></trkpt>
<trkpt lat="37.594702" lon="126.969736"><ele>156.4</ele></trkpt>
<trkpt lat="37.594567" lon="126.969594"><ele>153.5</ele></trkpt>
<trkpt lat="37.594429" lon="126.969361"><ele>148.6</ele></trkpt>
<trkpt lat="37.594313" lon="126.969127"><ele>144.7</ele></trkpt>
<trkpt lat="37.594161" lon="126.968850"><ele>142.6</ele></trkpt>
<trkpt lat="37.594030" lon="126.968570"><ele>139.9</ele></trkpt>
<trkpt lat="37.593951" lon="126.968276"><ele>137.2</ele></trkpt>
<trkpt lat="37.593906" lon="126.968055"><ele>134.9</ele></trkpt>
<trkpt lat="37.593820" lon="126.967846"><ele>134.9</ele></trkpt>
<trkpt lat="37.593666" lon="126.967672"><ele>134.1</ele></trkpt>
<trkpt lat="37.593521" lon="126.967496"><ele>133.1</ele></trkpt>
<trkpt lat="37.593410" lon="126.967306"><ele>131.9</ele></trkpt>
<trkpt lat="37.593294" lon="126.967085"><ele>130.3</ele></trkpt>
<trkpt lat="37.593192" lon="126.966840"><ele>128.5</ele></trkpt>
<trkpt lat="37.593148" lon="126.966687"><ele>128.5</ele></trkpt>
<trkpt lat="37.593106" lon="126.966562"><ele>127.2</ele></trkpt>
</trkseg></trk></gpx>
