<?xml version="1.0" encoding="UTF-8"?>
<gpx version="1.1" creator="Runvis" xmlns="http://www.topografix.com/GPX/1/1">
<trk><name>여의도 한강공원 순환</name><trkseg>
<trkpt lat="37.5285" lon="126.9327"><ele>8</ele></trkpt>
<trkpt lat="37.527" lon="126.925"><ele>8</ele></trkpt>
<trkpt lat="37.525" lon="126.92"><ele>8</ele></trkpt>
<trkpt lat="37.523" lon="126.924"><ele>8</ele></trkpt>
<trkpt lat="37.5215" lon="126.93"><ele>8</ele></trkpt>
<trkpt lat="37.521" lon="126.938"><ele>8</ele></trkpt>
<trkpt lat="37.5225" lon="126.944"><ele>8</ele></trkpt>
<trkpt lat="37.525" lon="126.947"><ele>8</ele></trkpt>
<trkpt lat="37.5275" lon="126.944"><ele>8</ele></trkpt>
<trkpt lat="37.529" lon="126.938"><ele>8</ele></trkpt>
<trkpt lat="37.5285" lon="126.9327"><ele>8</ele></trkpt>
</trkseg></trk></gpx>