<?xml version="1.0" encoding="UTF-8"?>
<gpx version="1.1" creator="Runvis" xmlns="http://www.topografix.com/GPX/1/1">
<trk><name>안산 자락길</name><trkseg>
<trkpt lat="37.572600" lon="126.958500"><ele>57.3</ele></trkpt>
<trkpt lat="37.572950" lon="126.958100"><ele>57.5</ele></trkpt>
<trkpt lat="37.573300" lon="126.957700"><ele>57.2</ele></trkpt>
<trkpt lat="37.573750" lon="126.957450"><ele>58.0</ele></trkpt>
<trkpt lat="37.574200" lon="126.957200"><ele>57.2</ele></trkpt>
<trkpt lat="37.574700" lon="126.957050"><ele>56.4</ele></trkpt>
<trkpt lat="37.575200" lon="126.956900"><ele>58.8</ele></trkpt>
<trkpt lat="37.575700" lon="126.956850"><ele>67.2</ele></trkpt>
<trkpt lat="37.576200" lon="126.956800"><ele>75.6</ele></trkpt>
<trkpt lat="37.576700" lon="126.956825"><ele>87.4</ele></trkpt>
<trkpt lat="37.577200" lon="126.956850"><ele>99.2</ele></trkpt>
<trkpt lat="37.577700" lon="126.956775"><ele>113.0</ele></trkpt>
<trkpt lat="37.578200" lon="126.956700"><ele>121.2</ele></trkpt>
<trkpt lat="37.578650" lon="126.956450"><ele>128.8</ele></trkpt>
<trkpt lat="37.579100" lon="126.956200"><ele>133.0</ele></trkpt>
<trkpt lat="37.579450" lon="126.955800"><ele>134.6</ele></trkpt>
<trkpt lat="37.579800" lon="126.955400"><ele>131.4</ele></trkpt>
<trkpt lat="37.580100" lon="126.954900"><ele>125.8</ele></trkpt>
<trkpt lat="37.580400" lon="126.954400"><ele>116.0</ele></trkpt>
<trkpt lat="37.580650" lon="126.953850"><ele>106.2</ele></trkpt>
<trkpt lat="37.580900" lon="126.953300"><ele>96.8</ele></trkpt>
<trkpt lat="37.581100" lon="126.952700"><ele>84.4</ele></trkpt>
<trkpt lat="37.581300" lon="126.952100"><ele>76.0</ele></trkpt>
<trkpt lat="37.581450" lon="126.951450"><ele>70.2</ele></trkpt>
<trkpt lat="37.581600" lon="126.950800"><ele>66.4</ele></trkpt>
<trkpt lat="37.581700" lon="126.950150"><ele>68.4</ele></trkpt>
<trkpt lat="37.581800" lon="126.949500"><ele>75.0</ele></trkpt>
<trkpt lat="37.581850" lon="126.948800"><ele>82.2</ele></trkpt>
<trkpt lat="37.581200" lon="126.948700"><ele>98.0</ele></trkpt>
<trkpt lat="37.580400" lon="126.948800"><ele>114.6</ele></trkpt>
<trkpt lat="37.579600" lon="126.948950"><ele>131.8</ele></trkpt>
<trkpt lat="37.578800" lon="126.949000"><ele>144.8</ele></trkpt>
<trkpt lat="37.578000" lon="126.949100"><ele>155.6</ele></trkpt>
<trkpt lat="37.577200" lon="126.949250"><ele>162.8</ele></trkpt>
<trkpt lat="37.576900" lon="126.949300"><ele>167.2</ele></trkpt>
<trkpt lat="37.576300" lon="126.949400"><ele>169.2</ele></trkpt>
<trkpt lat="37.576050" lon="126.949850"><ele>167.8</ele></trkpt>
<trkpt lat="37.575800" lon="126.950300"><ele>166.4</ele></trkpt>
<trkpt lat="37.575550" lon="126.950850"><ele>156.6</ele></trkpt>
<trkpt lat="37.575300" lon="126.951400"><ele>140.4</ele></trkpt>
<trkpt lat="37.575050" lon="126.952000"><ele>122.4</ele></trkpt>
<trkpt lat="37.574800" lon="126.952600"><ele>107.8</ele></trkpt>
<trkpt lat="37.574550" lon="126.953200"><ele>92.6</ele></trkpt>
<trkpt lat="37.574300" lon="126.953800"><ele>81.4</ele></trkpt>
<trkpt lat="37.574100" lon="126.954400"><ele>76.6</ele></trkpt>
<trkpt lat="37.573900" lon="126.955000"><ele>70.0</ele></trkpt>
<trkpt lat="37.573700" lon="126.955600"><ele>66.4</ele></trkpt>
<trkpt lat="37.573500" lon="126.956200"><ele>63.4</ele></trkpt>
<trkpt lat="37.573300" lon="126.956700"><ele>61.8</ele></trkpt>
<trkpt lat="37.573100" lon="126.957200"><ele>58.6</ele></trkpt>
<trkpt lat="37.572800" lon="126.958000"><ele>58.5</ele></trkpt>
<trkpt lat="37.572600" lon="126.958500"><ele>57.7</ele></trkpt>
</trkseg></trk></gpx>
