<?xml version="1.0" encoding="UTF-8"?>
<gpx version="1.1" creator="Runvis" xmlns="http://www.topografix.com/GPX/1/1">
<trk><name>서울숲 순환</name><trkseg>
<trkpt lat="37.543884" lon="127.041859"><ele>16.7</ele></trkpt>
<trkpt lat="37.544241" lon="127.042157"><ele>16.8</ele></trkpt>
<trkpt lat="37.544599" lon="127.042454"><ele>16.4</ele></trkpt>
<trkpt lat="37.544735" lon="127.041953"><ele>16.2</ele></trkpt>
<trkpt lat="37.545136" lon="127.041534"><ele>15.8</ele></trkpt>
<trkpt lat="37.545555" lon="127.041259"><ele>15.4</ele></trkpt>
<trkpt lat="37.546090" lon="127.041297"><ele>15.0</ele></trkpt>
<trkpt lat="37.546210" lon="127.040874"><ele>15.6</ele></trkpt>
<trkpt lat="37.546104" lon="127.040229"><ele>15.8</ele></trkpt>
<trkpt lat="37.545729" lon="127.039631"><ele>16.0</ele></trkpt>
<trkpt lat="37.546216" lon="127.039419"><ele>15.8</ele></trkpt>
<trkpt lat="37.546703" lon="127.039207"><ele>15.6</ele></trkpt>
<trkpt lat="37.545946" lon="127.038848"><ele>14.8</ele></trkpt>
<trkpt lat="37.546174" lon="127.038667"><ele>14.4</ele></trkpt>
<trkpt lat="37.545950" lon="127.038507"><ele>15.4</ele></trkpt>
<trkpt lat="37.545827" lon="127.037812"><ele>17.0</ele></trkpt>
<trkpt lat="37.545305" lon="127.037126"><ele>18.6</ele></trkpt>
<trkpt lat="37.544828" lon="127.037111"><ele>20.2</ele></trkpt>
<trkpt lat="37.544557" lon="127.037396"><ele>21.6</ele></trkpt>
<trkpt lat="37.544283" lon="127.037082"><ele>21.6</ele></trkpt>
<trkpt lat="37.544123" lon="127.036508"><ele>21.8</ele></trkpt>
<trkpt lat="37.543964" lon="127.035934"><ele>22.0</ele></trkpt>
<trkpt lat="37.543804" lon="127.035360"><ele>22.2</ele></trkpt>
<trkpt lat="37.543261" lon="127.034606"><ele>22.6</ele></trkpt>
<trkpt lat="37.542838" lon="127.034949"><ele>23.0</ele></trkpt>
<trkpt lat="37.542289" lon="127.034460"><ele>22.6</ele></trkpt>
<trkpt lat="37.541880" lon="127.034573"><ele>21.6</ele></trkpt>
<trkpt lat="37.541472" lon="127.034686"><ele>21.8</ele></trkpt>
<trkpt lat="37.541611" lon="127.035607"><ele>22.0</ele></trkpt>
<trkpt lat="37.541422" lon="127.035872"><ele>21.6</ele></trkpt>
<trkpt lat="37.541456" lon="127.036436"><ele>20.6</ele></trkpt>
<trkpt lat="37.541491" lon="127.037000"><ele>21.4</ele></trkpt>
<trkpt lat="37.540950" lon="127.037634"><ele>19.6</ele></trkpt>
<trkpt lat="37.540761" lon="127.038073"><ele>19.4</ele></trkpt>
<trkpt lat="37.541110" lon="127.038453"><ele>18.4</ele></trkpt>
<trkpt lat="37.540657" lon="127.038895"><ele>18.4</ele></trkpt>
<trkpt lat="37.541139" lon="127.039255"><ele>18.4</ele></trkpt>
<trkpt lat="37.541181" lon="127.039542"><ele>19.8</ele></trkpt>
<trkpt lat="37.540768" lon="127.039750"><ele>19.8</ele></trkpt>
<trkpt lat="37.540354" lon="127.039957"><ele>21.2</ele></trkpt>
<trkpt lat="37.539941" lon="127.040165"><ele>22.2</ele></trkpt>
<trkpt lat="37.539391" lon="127.040641"><ele>22.0</ele></trkpt>
<trkpt lat="37.539291" lon="127.041160"><ele>21.2</ele></trkpt>
<trkpt lat="37.539699" lon="127.041044"><ele>20.2</ele></trkpt>
<trkpt lat="37.540106" lon="127.040929"><ele>18.6</ele></trkpt>
<trkpt lat="37.540514" lon="127.040814"><ele>17.4</ele></trkpt>
<trkpt lat="37.540922" lon="127.040698"><ele>16.6</ele></trkpt>
<trkpt lat="37.541329" lon="127.040582"><ele>16.4</ele></trkpt>
<trkpt lat="37.541737" lon="127.040467"><ele>16.2</ele></trkpt>
<trkpt lat="37.542177" lon="127.040259"><ele>16.6</ele></trkpt>
<trkpt lat="37.542617" lon="127.040052"><ele>17.0</ele></trkpt>
<trkpt lat="37.543057" lon="127.039844"><ele>17.0</ele></trkpt>
<trkpt lat="37.542673" lon="127.040272"><ele>16.8</ele></trkpt>
<trkpt lat="37.542290" lon="127.040700"><ele>16.6</ele></trkpt>
<trkpt lat="37.542735" lon="127.040895"><ele>16.2</ele></trkpt>
<trkpt lat="37.542864" lon="127.041424"><ele>16.0</ele></trkpt>
<trkpt lat="37.543374" lon="127.041641"><ele>15.8</ele></trkpt>
<trkpt lat="37.543884" lon="127.041859"><ele>15.7</ele></trkpt>
</trkseg></trk></gpx>
