<?xml version="1.0" encoding="UTF-8"?>
<gpx version="1.1" creator="Runvis" xmlns="http://www.topografix.com/GPX/1/1">
<trk><name>남산 정상 업힐</name><trkseg>
<trkpt lat="37.555925" lon="126.976973"><ele>67.7</ele></trkpt>
<trkpt lat="37.555445" lon="126.976539"><ele>70.7</ele></trkpt>
<trkpt lat="37.555237" lon="126.976624"><ele>73.0</ele></trkpt>
<trkpt lat="37.555136" lon="126.976740"><ele>74.3</ele></trkpt>
<trkpt lat="37.554985" lon="126.977024"><ele>76.2</ele></trkpt>
<trkpt lat="37.554860" lon="126.977318"><ele>77.0</ele></trkpt>
<trkpt lat="37.554737" lon="126.977591"><ele>77.7</ele></trkpt>
<trkpt lat="37.554619" lon="126.977808"><ele>79.9</ele></trkpt>
<trkpt lat="37.554395" lon="126.978199"><ele>80.5</ele></trkpt>
<trkpt lat="37.554250" lon="126.978450"><ele>83.4</ele></trkpt>
<trkpt lat="37.554158" lon="126.978600"><ele>84.5</ele></trkpt>
<trkpt lat="37.554082" lon="126.978729"><ele>86.5</ele></trkpt>
<trkpt lat="37.553990" lon="126.978830"><ele>86.5</ele></trkpt>
<trkpt lat="37.553788" lon="126.978868"><ele>87.4</ele></trkpt>
<trkpt lat="37.553495" lon="126.978864"><ele>89.3</ele></trkpt>
<trkpt lat="37.553389" lon="126.978897"><ele>90.7</ele></trkpt>
<trkpt lat="37.553190" lon="126.978985"><ele>92.1</ele></trkpt>
<trkpt lat="37.553048" lon="126.979122"><ele>93.3</ele></trkpt>
<trkpt lat="37.552914" lon="126.979299"><ele>95.2</ele></trkpt>
<trkpt lat="37.552771" lon="126.979483"><ele>96.2</ele></trkpt>
<trkpt lat="37.552667" lon="126.979666"><ele>96.8</ele></trkpt>
<trkpt lat="37.552477" lon="126.979919"><ele>99.4</ele></trkpt>
<trkpt lat="37.552260" lon="126.980283"><ele>101.2</ele></trkpt>
<trkpt lat="37.552190" lon="126.980444"><ele>102.7</ele></trkpt>
<trkpt lat="37.552154" lon="126.980586"><ele>104.2</ele></trkpt>
<trkpt lat="37.552170" lon="126.980884"><ele>105.3</ele></trkpt>
<trkpt lat="37.552185" lon="126.981079"><ele>107.0</ele></trkpt>
<trkpt lat="37.552200" lon="126.981280"><ele>107.9</ele></trkpt>
<trkpt lat="37.552237" lon="126.981763"><ele>110.9</ele></trkpt>
<trkpt lat="37.552210" lon="126.981996"><ele>110.9</ele></trkpt>
<trkpt lat="37.552288" lon="126.982197"><ele>113.8</ele></trkpt>
<trkpt lat="37.552284" lon="126.982349"><ele>115.6</ele></trkpt>
<trkpt lat="37.552220" lon="126.982570"><ele>116.2</ele></trkpt>
<trkpt lat="37.552111" lon="126.982757"><ele>118.6</ele></trkpt>
<trkpt lat="37.551954" lon="126.982993"><ele>122.9</ele></trkpt>
<trkpt lat="37.551771" lon="126.983271"><ele>123.9</ele></trkpt>
<trkpt lat="37.551632" lon="126.983507"><ele>128.1</ele></trkpt>
<trkpt lat="37.551580" lon="126.983628"><ele>128.1</ele></trkpt>
<trkpt lat="37.551485" lon="126.983946"><ele>130.3</ele></trkpt>
<trkpt lat="37.551436" lon="126.984081"><ele>130.4</ele></trkpt>
<trkpt lat="37.551321" lon="126.984231"><ele>131.6</ele></trkpt>
<trkpt lat="37.551097" lon="126.984392"><ele>135.4</ele></trkpt>
<trkpt lat="37.550951" lon="126.984532"><ele>137.8</ele></trkpt>
<trkpt lat="37.550839" lon="126.984698"><ele>138.8</ele></trkpt>
<trkpt lat="37.550742" lon="126.984861"><ele>141.2</ele></trkpt>
<trkpt lat="37.550648" lon="126.985017"><ele>142.8</ele></trkpt>
<trkpt lat="37.550542" lon="126.985094"><ele>142.8</ele></trkpt>
<trkpt lat="37.550019" lon="126.984905"><ele>150.2</ele></trkpt>
<trkpt lat="37.549851" lon="126.984910"><ele>152.6</ele></trkpt>
<trkpt lat="37.549751" lon="126.985013"><ele>152.9</ele></trkpt>
<trkpt lat="37.549659" lon="126.985183"><ele>155.3</ele></trkpt>
<trkpt lat="37.549534" lon="126.985423"><ele>157.1</ele></trkpt>
<trkpt lat="37.549397" lon="126.985633"><ele>160.0</ele></trkpt>
<trkpt lat="37.549137" lon="126.986018"><ele>166.3</ele></trkpt>
<trkpt lat="37.548961" lon="126.986298"><ele>169.1</ele></trkpt>
<trkpt lat="37.548880" lon="126.986428"><ele>169.1</ele></trkpt>
<trkpt lat="37.548703" lon="126.986552"><ele>172.3</ele></trkpt>
<trkpt lat="37.548399" lon="126.986724"><ele>178.7</ele></trkpt>
<trkpt lat="37.548286" lon="126.986811"><ele>181.3</ele></trkpt>
<trkpt lat="37.548224" lon="126.986948"><ele>184.5</ele></trkpt>
<trkpt lat="37.548226" lon="126.987102"><ele>186.2</ele></trkpt>
<trkpt lat="37.548270" lon="126.987287"><ele>190.7</ele></trkpt>
<trkpt lat="37.548335" lon="126.987438"><ele>193.2</ele></trkpt>
<trkpt lat="37.548434" lon="126.987544"><ele>193.2</ele></trkpt>
<trkpt lat="37.548542" lon="126.987583"><ele>194.5</ele></trkpt>
<trkpt lat="37.548660" lon="126.987579"><ele>196.9</ele></trkpt>
<trkpt lat="37.548980" lon="126.987498"><ele>203.9</ele></trkpt>
<trkpt lat="37.549177" lon="126.987461"><ele>207.3</ele></trkpt>
<trkpt lat="37.549303" lon="126.987450"><ele>208.8</ele></trkpt>
<trkpt lat="37.549432" lon="126.987459"><ele>211.3</ele></trkpt>
<trkpt lat="37.549564" lon="126.987483"><ele>212.8</ele></trkpt>
<trkpt lat="37.549677" lon="126.987514"><ele>214.5</ele></trkpt>
<trkpt lat="37.549796" lon="126.987590"><ele>218.4</ele></trkpt>
<trkpt lat="37.549892" lon="126.987671"><ele>220.2</ele></trkpt>
<trkpt lat="37.550002" lon="126.987802"><ele>222.2</ele></trkpt>
<trkpt lat="37.550175" lon="126.988052"><ele>230.6</ele></trkpt>
<trkpt lat="37.550275" lon="126.988204"><ele>232.9</ele></trkpt>
<trkpt lat="37.550429" lon="126.988420"><ele>233.3</ele></trkpt>
<trkpt lat="37.550568" lon="126.988573"><ele>235.6</ele></trkpt>
<trkpt lat="37.550683" lon="126.988721"><ele>237.4</ele></trkpt>
<trkpt lat="37.550753" lon="126.988826"><ele>239.1</ele></trkpt>
<trkpt lat="37.550945" lon="126.989172"><ele>242.5</ele></trkpt>
<trkpt lat="37.551044" lon="126.989369"><ele>243.7</ele></trkpt>
<trkpt lat="37.551166" lon="126.989646"><ele>244.6</ele></trkpt>
<trkpt lat="37.551226" lon="126.989855"><ele>245.3</ele></trkpt>
<trkpt lat="37.551240" lon="126.990028"><ele>245.8</ele></trkpt>
<trkpt lat="37.551234" lon="126.990222"><ele>246.4</ele></trkpt>
<trkpt lat="37.551171" lon="126.990447"><ele>247.2</ele></trkpt>
<trkpt lat="37.551068" lon="126.990729"><ele>247.5</ele></trkpt>
<trkpt lat="37.551064" lon="126.990896"><ele>247.8</ele></trkpt>
<trkpt lat="37.551068" lon="126.990729"><ele>247.5</ele></trkpt>
<trkpt lat="37.551171" lon="126.990447"><ele>246.6</ele></trkpt>
<trkpt lat="37.551226" lon="126.990275"><ele>245.8</ele></trkpt>
<trkpt lat="37.551237" lon="126.990124"><ele>245.8</ele></trkpt>
<trkpt lat="37.551237" lon="126.989954"><ele>245.2</ele></trkpt>
<trkpt lat="37.551204" lon="126.989751"><ele>244.6</ele></trkpt>
<trkpt lat="37.551093" lon="126.989480"><ele>244.9</ele></trkpt>
<trkpt lat="37.550997" lon="126.989271"><ele>242.4</ele></trkpt>
<trkpt lat="37.550812" lon="126.988929"><ele>238.4</ele></trkpt>
<trkpt lat="37.550683" lon="126.988721"><ele>237.4</ele></trkpt>
<trkpt lat="37.550568" lon="126.988573"><ele>235.6</ele></trkpt>
<trkpt lat="37.550429" lon="126.988420"><ele>233.3</ele></trkpt>
<trkpt lat="37.550275" lon="126.988204"><ele>232.5</ele></trkpt>
<trkpt lat="37.550175" lon="126.988052"><ele>229.1</ele></trkpt>
<trkpt lat="37.550059" lon="126.987880"><ele>224.1</ele></trkpt>
<trkpt lat="37.549947" lon="126.987732"><ele>220.4</ele></trkpt>
<trkpt lat="37.549847" lon="126.987632"><ele>218.4</ele></trkpt>
<trkpt lat="37.549735" lon="126.987548"><ele>214.5</ele></trkpt>
<trkpt lat="37.549617" lon="126.987496"><ele>212.8</ele></trkpt>
<trkpt lat="37.549495" lon="126.987468"><ele>211.3</ele></trkpt>
<trkpt lat="37.549354" lon="126.987453"><ele>208.8</ele></trkpt>
<trkpt lat="37.549215" lon="126.987455"><ele>207.3</ele></trkpt>
<trkpt lat="37.548980" lon="126.987498"><ele>203.9</ele></trkpt>
<trkpt lat="37.548660" lon="126.987579"><ele>196.9</ele></trkpt>
<trkpt lat="37.548542" lon="126.987583"><ele>194.5</ele></trkpt>
<trkpt lat="37.548434" lon="126.987544"><ele>193.2</ele></trkpt>
<trkpt lat="37.548335" lon="126.987438"><ele>190.7</ele></trkpt>
<trkpt lat="37.548270" lon="126.987287"><ele>189.3</ele></trkpt>
<trkpt lat="37.548226" lon="126.987102"><ele>186.2</ele></trkpt>
<trkpt lat="37.548224" lon="126.986948"><ele>183.1</ele></trkpt>
<trkpt lat="37.548286" lon="126.986811"><ele>181.3</ele></trkpt>
<trkpt lat="37.548399" lon="126.986724"><ele>178.7</ele></trkpt>
<trkpt lat="37.548703" lon="126.986552"><ele>172.3</ele></trkpt>
<trkpt lat="37.548811" lon="126.986491"><ele>168.9</ele></trkpt>
<trkpt lat="37.548897" lon="126.986402"><ele>168.9</ele></trkpt>
<trkpt lat="37.549137" lon="126.986018"><ele>165.6</ele></trkpt>
<trkpt lat="37.549397" lon="126.985633"><ele>159.8</ele></trkpt>
<trkpt lat="37.549493" lon="126.985500"><ele>158.1</ele></trkpt>
<trkpt lat="37.549635" lon="126.985242"><ele>155.1</ele></trkpt>
<trkpt lat="37.549709" lon="126.985079"><ele>152.7</ele></trkpt>
<trkpt lat="37.549788" lon="126.984959"><ele>152.4</ele></trkpt>
<trkpt lat="37.549941" lon="126.984885"><ele>151.3</ele></trkpt>
<trkpt lat="37.550446" lon="126.985069"><ele>146.4</ele></trkpt>
<trkpt lat="37.550618" lon="126.985065"><ele>143.9</ele></trkpt>
<trkpt lat="37.550742" lon="126.984861"><ele>142.2</ele></trkpt>
<trkpt lat="37.550839" lon="126.984698"><ele>139.9</ele></trkpt>
<trkpt lat="37.550951" lon="126.984532"><ele>138.9</ele></trkpt>
<trkpt lat="37.551097" lon="126.984392"><ele>136.5</ele></trkpt>
<trkpt lat="37.551241" lon="126.984297"><ele>132.6</ele></trkpt>
<trkpt lat="37.551392" lon="126.984164"><ele>132.8</ele></trkpt>
<trkpt lat="37.551485" lon="126.983946"><ele>131.6</ele></trkpt>
<trkpt lat="37.551580" lon="126.983628"><ele>129.3</ele></trkpt>
<trkpt lat="37.551632" lon="126.983507"><ele>127.7</ele></trkpt>
<trkpt lat="37.551771" lon="126.983271"><ele>125.2</ele></trkpt>
<trkpt lat="37.551954" lon="126.982993"><ele>124.2</ele></trkpt>
<trkpt lat="37.552111" lon="126.982757"><ele>119.9</ele></trkpt>
<trkpt lat="37.552182" lon="126.982644"><ele>117.5</ele></trkpt>
<trkpt lat="37.552256" lon="126.982469"><ele>116.8</ele></trkpt>
<trkpt lat="37.552295" lon="126.982231"><ele>113.2</ele></trkpt>
<trkpt lat="37.552210" lon="126.981996"><ele>112.0</ele></trkpt>
<trkpt lat="37.552232" lon="126.981832"><ele>112.0</ele></trkpt>
<trkpt lat="37.552200" lon="126.981280"><ele>108.9</ele></trkpt>
<trkpt lat="37.552185" lon="126.981079"><ele>108.1</ele></trkpt>
<trkpt lat="37.552170" lon="126.980884"><ele>106.4</ele></trkpt>
<trkpt lat="37.552154" lon="126.980586"><ele>104.1</ele></trkpt>
<trkpt lat="37.552190" lon="126.980444"><ele>103.6</ele></trkpt>
<trkpt lat="37.552260" lon="126.980283"><ele>102.1</ele></trkpt>
<trkpt lat="37.552420" lon="126.980011"><ele>100.4</ele></trkpt>
<trkpt lat="37.552667" lon="126.979666"><ele>97.8</ele></trkpt>
<trkpt lat="37.552771" lon="126.979483"><ele>97.0</ele></trkpt>
<trkpt lat="37.552914" lon="126.979299"><ele>96.1</ele></trkpt>
<trkpt lat="37.553048" lon="126.979122"><ele>94.2</ele></trkpt>
<trkpt lat="37.553190" lon="126.978985"><ele>93.1</ele></trkpt>
<trkpt lat="37.553305" lon="126.978903"><ele>92.4</ele></trkpt>
<trkpt lat="37.553495" lon="126.978864"><ele>90.2</ele></trkpt>
<trkpt lat="37.553788" lon="126.978868"><ele>88.3</ele></trkpt>
<trkpt lat="37.553990" lon="126.978830"><ele>86.4</ele></trkpt>
<trkpt lat="37.554082" lon="126.978729"><ele>86.4</ele></trkpt>
<trkpt lat="37.554158" lon="126.978600"><ele>84.4</ele></trkpt>
<trkpt lat="37.554250" lon="126.978450"><ele>83.3</ele></trkpt>
<trkpt lat="37.554395" lon="126.978199"><ele>80.4</ele></trkpt>
<trkpt lat="37.554619" lon="126.977808"><ele>79.8</ele></trkpt>
<trkpt lat="37.554710" lon="126.977650"><ele>76.1</ele></trkpt>
<trkpt lat="37.554860" lon="126.977318"><ele>75.4</ele></trkpt>
<trkpt lat="37.554979" lon="126.977041"><ele>74.6</ele></trkpt>
<trkpt lat="37.555136" lon="126.976740"><ele>72.5</ele></trkpt>
<trkpt lat="37.555237" lon="126.976624"><ele>71.2</ele></trkpt>
<trkpt lat="37.555445" lon="126.976539"><ele>68.9</ele></trkpt>
<trkpt lat="37.555870" lon="126.976870"><ele>65.9</ele></trkpt>
<trkpt lat="37.555925" lon="126.976973"><ele>65.9</ele></trkpt>
</trkseg></trk></gpx>
