<?xml version="1.0" encoding="UTF-8"?>
<gpx version="1.1" creator="Runvis" xmlns="http://www.topografix.com/GPX/1/1">
<trk><name>인왕산 자락길</name><trkseg>
<trkpt lat="37.573658" lon="126.963929"><ele>99.3</ele></trkpt>
<trkpt lat="37.573814" lon="126.963903"><ele>101.0</ele></trkpt>
<trkpt lat="37.573932" lon="126.963823"><ele>102.3</ele></trkpt>
<trkpt lat="37.574071" lon="126.963751"><ele>103.4</ele></trkpt>
<trkpt lat="37.574250" lon="126.963666"><ele>103.5</ele></trkpt>
<trkpt lat="37.574890" lon="126.963582"><ele>103.6</ele></trkpt>
<trkpt lat="37.575206" lon="126.963545"><ele>104.2</ele></trkpt>
<trkpt lat="37.575422" lon="126.963602"><ele>105.9</ele></trkpt>
<trkpt lat="37.575642" lon="126.963508"><ele>107.0</ele></trkpt>
<trkpt lat="37.575736" lon="126.963435"><ele>108.1</ele></trkpt>
<trkpt lat="37.575859" lon="126.963331"><ele>109.7</ele></trkpt>
<trkpt lat="37.575964" lon="126.963280"><ele>109.7</ele></trkpt>
<trkpt lat="37.576112" lon="126.963247"><ele>110.7</ele></trkpt>
<trkpt lat="37.576229" lon="126.963223"><ele>111.3</ele></trkpt>
<trkpt lat="37.576394" lon="126.963160"><ele>113.0</ele></trkpt>
<trkpt lat="37.576496" lon="126.963092"><ele>114.5</ele></trkpt>
<trkpt lat="37.576687" lon="126.963026"><ele>116.5</ele></trkpt>
<trkpt lat="37.576903" lon="126.963083"><ele>119.3</ele></trkpt>
<trkpt lat="37.577106" lon="126.963141"><ele>120.4</ele></trkpt>
<trkpt lat="37.577216" lon="126.963097"><ele>120.8</ele></trkpt>
<trkpt lat="37.577397" lon="126.963024"><ele>122.3</ele></trkpt>
<trkpt lat="37.577555" lon="126.962892"><ele>123.8</ele></trkpt>
<trkpt lat="37.577671" lon="126.962731"><ele>126.7</ele></trkpt>
<trkpt lat="37.577776" lon="126.962524"><ele>128.3</ele></trkpt>
<trkpt lat="37.577845" lon="126.962406"><ele>129.6</ele></trkpt>
<trkpt lat="37.577942" lon="126.962316"><ele>131.2</ele></trkpt>
<trkpt lat="37.578075" lon="126.962123"><ele>133.2</ele></trkpt>
<trkpt lat="37.578162" lon="126.961961"><ele>134.2</ele></trkpt>
<trkpt lat="37.578251" lon="126.961875"><ele>134.3</ele></trkpt>
<trkpt lat="37.578383" lon="126.962001"><ele>135.5</ele></trkpt>
<trkpt lat="37.578602" lon="126.962012"><ele>137.7</ele></trkpt>
<trkpt lat="37.578857" lon="126.961938"><ele>138.9</ele></trkpt>
<trkpt lat="37.579039" lon="126.961948"><ele>139.8</ele></trkpt>
<trkpt lat="37.579237" lon="126.961985"><ele>139.8</ele></trkpt>
<trkpt lat="37.579408" lon="126.961845"><ele>138.9</ele></trkpt>
<trkpt lat="37.579541" lon="126.961764"><ele>137.8</ele></trkpt>
<trkpt lat="37.579664" lon="126.961749"><ele>137.8</ele></trkpt>
<trkpt lat="37.579857" lon="126.961833"><ele>136.4</ele></trkpt>
<trkpt lat="37.580070" lon="126.961916"><ele>133.8</ele></trkpt>
<trkpt lat="37.580318" lon="126.962030"><ele>130.9</ele></trkpt>
<trkpt lat="37.580492" lon="126.962093"><ele>130.9</ele></trkpt>
<trkpt lat="37.580696" lon="126.962144"><ele>130.1</ele></trkpt>
<trkpt lat="37.580862" lon="126.962182"><ele>129.3</ele></trkpt>
<trkpt lat="37.581020" lon="126.962182"><ele>129.8</ele></trkpt>
<trkpt lat="37.581128" lon="126.962152"><ele>129.8</ele></trkpt>
<trkpt lat="37.581258" lon="126.962105"><ele>130.2</ele></trkpt>
<trkpt lat="37.581412" lon="126.962028"><ele>130.3</ele></trkpt>
<trkpt lat="37.581637" lon="126.961912"><ele>130.7</ele></trkpt>
<trkpt lat="37.581759" lon="126.961825"><ele>131.6</ele></trkpt>
<trkpt lat="37.581900" lon="126.961719"><ele>133.2</ele></trkpt>
<trkpt lat="37.582012" lon="126.961550"><ele>133.4</ele></trkpt>
<trkpt lat="37.582163" lon="126.961345"><ele>133.7</ele></trkpt>
<trkpt lat="37.582362" lon="126.961261"><ele>134.4</ele></trkpt>
<trkpt lat="37.582566" lon="126.961310"><ele>135.3</ele></trkpt>
<trkpt lat="37.582729" lon="126.961322"><ele>136.8</ele></trkpt>
<trkpt lat="37.582892" lon="126.961359"><ele>137.8</ele></trkpt>
<trkpt lat="37.583027" lon="126.961418"><ele>138.5</ele></trkpt>
<trkpt lat="37.583288" lon="126.961562"><ele>140.2</ele></trkpt>
<trkpt lat="37.583412" lon="126.961640"><ele>142.3</ele></trkpt>
<trkpt lat="37.583536" lon="126.961698"><ele>144.3</ele></trkpt>
<trkpt lat="37.583725" lon="126.961719"><ele>145.1</ele></trkpt>
<trkpt lat="37.583931" lon="126.961841"><ele>146.1</ele></trkpt>
<trkpt lat="37.583958" lon="126.961997"><ele>146.3</ele></trkpt>
<trkpt lat="37.583899" lon="126.962113"><ele>147.3</ele></trkpt>
<trkpt lat="37.583762" lon="126.962241"><ele>148.4</ele></trkpt>
<trkpt lat="37.583549" lon="126.962422"><ele>149.5</ele></trkpt>
<trkpt lat="37.583427" lon="126.962625"><ele>150.8</ele></trkpt>
<trkpt lat="37.583407" lon="126.962794"><ele>152.8</ele></trkpt>
<trkpt lat="37.583443" lon="126.962961"><ele>153.1</ele></trkpt>
<trkpt lat="37.583773" lon="126.963330"><ele>158.9</ele></trkpt>
<trkpt lat="37.583899" lon="126.963573"><ele>159.8</ele></trkpt>
<trkpt lat="37.584076" lon="126.963727"><ele>162.9</ele></trkpt>
<trkpt lat="37.584200" lon="126.963713"><ele>166.0</ele></trkpt>
<trkpt lat="37.584179" lon="126.963525"><ele>167.4</ele></trkpt>
<trkpt lat="37.584364" lon="126.963366"><ele>172.7</ele></trkpt>
<trkpt lat="37.584495" lon="126.963297"><ele>174.2</ele></trkpt>
<trkpt lat="37.584627" lon="126.963302"><ele>176.1</ele></trkpt>
<trkpt lat="37.584789" lon="126.963179"><ele>179.6</ele></trkpt>
<trkpt lat="37.585033" lon="126.963069"><ele>182.4</ele></trkpt>
<trkpt lat="37.585133" lon="126.962993"><ele>182.4</ele></trkpt>
<trkpt lat="37.585383" lon="126.962714"><ele>192.5</ele></trkpt>
<trkpt lat="37.585571" lon="126.962771"><ele>195.2</ele></trkpt>
<trkpt lat="37.585781" lon="126.962684"><ele>204.4</ele></trkpt>
<trkpt lat="37.585926" lon="126.962625"><ele>204.6</ele></trkpt>
<trkpt lat="37.586201" lon="126.962636"><ele>209.2</ele></trkpt>
<trkpt lat="37.586277" lon="126.962177"><ele>213.8</ele></trkpt>
<trkpt lat="37.586370" lon="126.961804"><ele>215.5</ele></trkpt>
<trkpt lat="37.586414" lon="126.961580"><ele>213.5</ele></trkpt>
<trkpt lat="37.586640" lon="126.961357"><ele>213.6</ele></trkpt>
<trkpt lat="37.586627" lon="126.961540"><ele>210.5</ele></trkpt>
<trkpt lat="37.586777" lon="126.961661"><ele>209.8</ele></trkpt>
<trkpt lat="37.586899" lon="126.961997"><ele>208.2</ele></trkpt>
<trkpt lat="37.587021" lon="126.962283"><ele>205.1</ele></trkpt>
<trkpt lat="37.587118" lon="126.962381"><ele>202.9</ele></trkpt>
<trkpt lat="37.587221" lon="126.962484"><ele>201.6</ele></trkpt>
<trkpt lat="37.587434" lon="126.962512"><ele>196.3</ele></trkpt>
<trkpt lat="37.587559" lon="126.962566"><ele>196.3</ele></trkpt>
<trkpt lat="37.587596" lon="126.962724"><ele>192.3</ele></trkpt>
<trkpt lat="37.587774" lon="126.962827"><ele>188.2</ele></trkpt>
<trkpt lat="37.587821" lon="126.962961"><ele>188.2</ele></trkpt>
<trkpt lat="37.587845" lon="126.963174"><ele>182.2</ele></trkpt>
<trkpt lat="37.588028" lon="126.963340"><ele>179.3</ele></trkpt>
<trkpt lat="37.588121" lon="126.963433"><ele>176.4</ele></trkpt>
<trkpt lat="37.588256" lon="126.963545"><ele>174.1</ele></trkpt>
<trkpt lat="37.588436" lon="126.963597"><ele>170.4</ele></trkpt>
<trkpt lat="37.588604" lon="126.963709"><ele>166.6</ele></trkpt>
<trkpt lat="37.588745" lon="126.963816"><ele>164.6</ele></trkpt>
<trkpt lat="37.588886" lon="126.964008"><ele>161.1</ele></trkpt>
<trkpt lat="37.589040" lon="126.964217"><ele>158.9</ele></trkpt>
<trkpt lat="37.589147" lon="126.964353"><ele>154.7</ele></trkpt>
<trkpt lat="37.589244" lon="126.964476"><ele>154.7</ele></trkpt>
<trkpt lat="37.589309" lon="126.964707"><ele>152.0</ele></trkpt>
<trkpt lat="37.589204" lon="126.964791"><ele>150.4</ele></trkpt>
<trkpt lat="37.589202" lon="126.965009"><ele>147.9</ele></trkpt>
<trkpt lat="37.589210" lon="126.965245"><ele>145.5</ele></trkpt>
<trkpt lat="37.589450" lon="126.965105"><ele>142.7</ele></trkpt>
<trkpt lat="37.589808" lon="126.964837"><ele>138.9</ele></trkpt>
<trkpt lat="37.590065" lon="126.964997"><ele>136.9</ele></trkpt>
<trkpt lat="37.590353" lon="126.965200"><ele>133.6</ele></trkpt>
<trkpt lat="37.590536" lon="126.965314"><ele>131.1</ele></trkpt>
<trkpt lat="37.590715" lon="126.965315"><ele>130.6</ele></trkpt>
<trkpt lat="37.590868" lon="126.965749"><ele>129.8</ele></trkpt>
<trkpt lat="37.590946" lon="126.965884"><ele>129.5</ele></trkpt>
<trkpt lat="37.591105" lon="126.966088"><ele>129.1</ele></trkpt>
<trkpt lat="37.591195" lon="126.966226"><ele>127.7</ele></trkpt>
<trkpt lat="37.591349" lon="126.966368"><ele>127.3</ele></trkpt>
<trkpt lat="37.591522" lon="126.966325"><ele>126.5</ele></trkpt>
<trkpt lat="37.591661" lon="126.966390"><ele>126.5</ele></trkpt>
<trkpt lat="37.591847" lon="126.966457"><ele>125.9</ele></trkpt>
<trkpt lat="37.592006" lon="126.966544"><ele>125.3</ele></trkpt>
<trkpt lat="37.592108" lon="126.966710"><ele>124.6</ele></trkpt>
<trkpt lat="37.591918" lon="126.966775"><ele>124.6</ele></trkpt>
<trkpt lat="37.591979" lon="126.966969"><ele>123.9</ele></trkpt>
<trkpt lat="37.592015" lon="126.967135"><ele>123.4</ele></trkpt>
<trkpt lat="37.592165" lon="126.967274"><ele>122.7</ele></trkpt>
<trkpt lat="37.592127" lon="126.967439"><ele>121.9</ele></trkpt>
<trkpt lat="37.592246" lon="126.967507"><ele>121.0</ele></trkpt>
</trkseg></trk></gpx>
