<?xml version="1.0" encoding="UTF-8"?>
<gpx version="1.1" creator="Runvis" xmlns="http://www.topografix.com/GPX/1/1">
<trk><name>청계천</name><trkseg>
<trkpt lat="37.569300" lon="126.978400"><ele>29.0</ele></trkpt>
<trkpt lat="37.569170" lon="126.978903"><ele>29.5</ele></trkpt>
<trkpt lat="37.569040" lon="126.979407"><ele>29.4</ele></trkpt>
<trkpt lat="37.568910" lon="126.979910"><ele>29.6</ele></trkpt>
<trkpt lat="37.568857" lon="126.980470"><ele>29.8</ele></trkpt>
<trkpt lat="37.568803" lon="126.981030"><ele>30.0</ele></trkpt>
<trkpt lat="37.568750" lon="126.981590"><ele>29.6</ele></trkpt>
<trkpt lat="37.568720" lon="126.982150"><ele>29.6</ele></trkpt>
<trkpt lat="37.568690" lon="126.982710"><ele>30.4</ele></trkpt>
<trkpt lat="37.568660" lon="126.983270"><ele>32.2</ele></trkpt>
<trkpt lat="37.568633" lon="126.983833"><ele>33.4</ele></trkpt>
<trkpt lat="37.568607" lon="126.984397"><ele>34.4</ele></trkpt>
<trkpt lat="37.568580" lon="126.984960"><ele>36.0</ele></trkpt>
<trkpt lat="37.568553" lon="126.985537"><ele>36.6</ele></trkpt>
<trkpt lat="37.568527" lon="126.986113"><ele>36.2</ele></trkpt>
<trkpt lat="37.568500" lon="126.986690"><ele>34.8</ele></trkpt>
<trkpt lat="37.568473" lon="126.987247"><ele>34.2</ele></trkpt>
<trkpt lat="37.568447" lon="126.987803"><ele>33.0</ele></trkpt>
<trkpt lat="37.568420" lon="126.988360"><ele>32.0</ele></trkpt>
<trkpt lat="37.568397" lon="126.988940"><ele>31.0</ele></trkpt>
<trkpt lat="37.568373" lon="126.989520"><ele>31.0</ele></trkpt>
<trkpt lat="37.568350" lon="126.990100"><ele>30.0</ele></trkpt>
<trkpt lat="37.568327" lon="126.990677"><ele>28.8</ele></trkpt>
<trkpt lat="37.568303" lon="126.991253"><ele>27.6</ele></trkpt>
<trkpt lat="37.568280" lon="126.991830"><ele>26.6</ele></trkpt>
<trkpt lat="37.568253" lon="126.992383"><ele>25.6</ele></trkpt>
<trkpt lat="37.568227" lon="126.992937"><ele>25.6</ele></trkpt>
<trkpt lat="37.568200" lon="126.993490"><ele>25.8</ele></trkpt>
<trkpt lat="37.568187" lon="126.994077"><ele>26.0</ele></trkpt>
<trkpt lat="37.568173" lon="126.994663"><ele>25.6</ele></trkpt>
<trkpt lat="37.568160" lon="126.995250"><ele>25.2</ele></trkpt>
<trkpt lat="37.568157" lon="126.995833"><ele>25.4</ele></trkpt>
<trkpt lat="37.568153" lon="126.996417"><ele>25.6</ele></trkpt>
<trkpt lat="37.568150" lon="126.997000"><ele>25.8</ele></trkpt>
<trkpt lat="37.568150" lon="126.997555"><ele>26.4</ele></trkpt>
<trkpt lat="37.568150" lon="126.998110"><ele>27.0</ele></trkpt>
<trkpt lat="37.568150" lon="126.998665"><ele>27.0</ele></trkpt>
<trkpt lat="37.568150" lon="126.999220"><ele>26.8</ele></trkpt>
<trkpt lat="37.568150" lon="126.999860"><ele>26.8</ele></trkpt>
<trkpt lat="37.568150" lon="127.000500"><ele>26.8</ele></trkpt>
<trkpt lat="37.568150" lon="127.001140"><ele>26.2</ele></trkpt>
<trkpt lat="37.568150" lon="127.001813"><ele>25.6</ele></trkpt>
<trkpt lat="37.568150" lon="127.002487"><ele>25.0</ele></trkpt>
<trkpt lat="37.568150" lon="127.003160"><ele>24.0</ele></trkpt>
<trkpt lat="37.568150" lon="127.003790"><ele>23.0</ele></trkpt>
<trkpt lat="37.568150" lon="127.004420"><ele>22.6</ele></trkpt>
<trkpt lat="37.568150" lon="127.005050"><ele>23.2</ele></trkpt>
<trkpt lat="37.568157" lon="127.005587"><ele>24.0</ele></trkpt>
<trkpt lat="37.568165" lon="127.006125"><ele>25.6</ele></trkpt>
<trkpt lat="37.568173" lon="127.006663"><ele>26.4</ele></trkpt>
<trkpt lat="37.568180" lon="127.007200"><ele>27.2</ele></trkpt>
<trkpt lat="37.568227" lon="127.007737"><ele>27.8</ele></trkpt>
<trkpt lat="37.568273" lon="127.008273"><ele>26.8</ele></trkpt>
<trkpt lat="37.568320" lon="127.008810"><ele>25.2</ele></trkpt>
<trkpt lat="37.568460" lon="127.009347"><ele>24.4</ele></trkpt>
<trkpt lat="37.568600" lon="127.009883"><ele>24.8</ele></trkpt>
<trkpt lat="37.568740" lon="127.010420"><ele>24.4</ele></trkpt>
<trkpt lat="37.568913" lon="127.010917"><ele>25.0</ele></trkpt>
<trkpt lat="37.569087" lon="127.011413"><ele>25.6</ele></trkpt>
<trkpt lat="37.569260" lon="127.011910"><ele>25.8</ele></trkpt>
<trkpt lat="37.569440" lon="127.012417"><ele>25.2</ele></trkpt>
<trkpt lat="37.569620" lon="127.012923"><ele>24.6</ele></trkpt>
<trkpt lat="37.569800" lon="127.013430"><ele>24.4</ele></trkpt>
<trkpt lat="37.569973" lon="127.013923"><ele>24.2</ele></trkpt>
<trkpt lat="37.570147" lon="127.014417"><ele>24.2</ele></trkpt>
<trkpt lat="37.570320" lon="127.014910"><ele>23.6</ele></trkpt>
<trkpt lat="37.570483" lon="127.015403"><ele>23.0</ele></trkpt>
<trkpt lat="37.570647" lon="127.015897"><ele>23.0</ele></trkpt>
<trkpt lat="37.570810" lon="127.016390"><ele>23.0</ele></trkpt>
<trkpt lat="37.570980" lon="127.016910"><ele>22.6</ele></trkpt>
<trkpt lat="37.571150" lon="127.017430"><ele>22.6</ele></trkpt>
<trkpt lat="37.571320" lon="127.017950"><ele>22.4</ele></trkpt>
<trkpt lat="37.571500" lon="127.018433"><ele>21.8</ele></trkpt>
<trkpt lat="37.571680" lon="127.018917"><ele>21.2</ele></trkpt>
<trkpt lat="37.571860" lon="127.019400"><ele>21.6</ele></trkpt>
<trkpt lat="37.572033" lon="127.019900"><ele>21.4</ele></trkpt>
<trkpt lat="37.572207" lon="127.020400"><ele>22.2</ele></trkpt>
<trkpt lat="37.572380" lon="127.020900"><ele>22.4</ele></trkpt>
<trkpt lat="37.572553" lon="127.021467"><ele>22.8</ele></trkpt>
<trkpt lat="37.572727" lon="127.022033"><ele>22.8</ele></trkpt>
<trkpt lat="37.572900" lon="127.022600"><ele>22.4</ele></trkpt>
<trkpt lat="37.573027" lon="127.023113"><ele>21.2</ele></trkpt>
<trkpt lat="37.573153" lon="127.023627"><ele>21.6</ele></trkpt>
<trkpt lat="37.573280" lon="127.024140"><ele>21.6</ele></trkpt>
<trkpt lat="37.573387" lon="127.024693"><ele>21.6</ele></trkpt>
<trkpt lat="37.573493" lon="127.025247"><ele>22.4</ele></trkpt>
<trkpt lat="37.573600" lon="127.025800"><ele>22.6</ele></trkpt>
<trkpt lat="37.573680" lon="127.026383"><ele>21.6</ele></trkpt>
<trkpt lat="37.573760" lon="127.026967"><ele>20.8</ele></trkpt>
<trkpt lat="37.573840" lon="127.027550"><ele>19.8</ele></trkpt>
<trkpt lat="37.573887" lon="127.028083"><ele>18.8</ele></trkpt>
<trkpt lat="37.573933" lon="127.028617"><ele>18.6</ele></trkpt>
<trkpt lat="37.573980" lon="127.029150"><ele>18.6</ele></trkpt>
<trkpt lat="37.574000" lon="127.029663"><ele>18.6</ele></trkpt>
<trkpt lat="37.574020" lon="127.030175"><ele>18.6</ele></trkpt>
<trkpt lat="37.574040" lon="127.030687"><ele>18.6</ele></trkpt>
<trkpt lat="37.574060" lon="127.031200"><ele>18.4</ele></trkpt>
<trkpt lat="37.574070" lon="127.031803"><ele>18.4</ele></trkpt>
<trkpt lat="37.574080" lon="127.032407"><ele>18.2</ele></trkpt>
<trkpt lat="37.574090" lon="127.033010"><ele>18.6</ele></trkpt>
<trkpt lat="37.574095" lon="127.033655"><ele>18.8</ele></trkpt>
<trkpt lat="37.574100" lon="127.034300"><ele>19.0</ele></trkpt>
</trkseg></trk></gpx>
