<?xml version="1.0" encoding="UTF-8"?>
<gpx version="1.1" creator="Runvis" xmlns="http://www.topografix.com/GPX/1/1">
<trk><name>도림천</name><trkseg>
<trkpt lat="37.471651" lon="126.933739"><ele>42.1</ele></trkpt>
<trkpt lat="37.471742" lon="126.933602"><ele>42.1</ele></trkpt>
<trkpt lat="37.471846" lon="126.933482"><ele>42.1</ele></trkpt>
<trkpt lat="37.472109" lon="126.933303"><ele>42.1</ele></trkpt>
<trkpt lat="37.472256" lon="126.933248"><ele>42.1</ele></trkpt>
<trkpt lat="37.472511" lon="126.933160"><ele>42.1</ele></trkpt>
<trkpt lat="37.472770" lon="126.933101"><ele>42.6</ele></trkpt>
<trkpt lat="37.472965" lon="126.933097"><ele>42.6</ele></trkpt>
<trkpt lat="37.473181" lon="126.933174"><ele>43.1</ele></trkpt>
<trkpt lat="37.473550" lon="126.933342"><ele>44.1</ele></trkpt>
<trkpt lat="37.473762" lon="126.933471"><ele>44.5</ele></trkpt>
<trkpt lat="37.473903" lon="126.933619"><ele>44.5</ele></trkpt>
<trkpt lat="37.474054" lon="126.933880"><ele>43.9</ele></trkpt>
<trkpt lat="37.474164" lon="126.934167"><ele>43.5</ele></trkpt>
<trkpt lat="37.474229" lon="126.934522"><ele>44.0</ele></trkpt>
<trkpt lat="37.474284" lon="126.934874"><ele>44.4</ele></trkpt>
<trkpt lat="37.474338" lon="126.935203"><ele>43.8</ele></trkpt>
<trkpt lat="37.474441" lon="126.935446"><ele>43.3</ele></trkpt>
<trkpt lat="37.474581" lon="126.935655"><ele>42.2</ele></trkpt>
<trkpt lat="37.474749" lon="126.935867"><ele>41.8</ele></trkpt>
<trkpt lat="37.474899" lon="126.936031"><ele>41.2</ele></trkpt>
<trkpt lat="37.475185" lon="126.936320"><ele>40.1</ele></trkpt>
<trkpt lat="37.475304" lon="126.936441"><ele>39.4</ele></trkpt>
<trkpt lat="37.475560" lon="126.936678"><ele>38.6</ele></trkpt>
<trkpt lat="37.475753" lon="126.936794"><ele>38.1</ele></trkpt>
<trkpt lat="37.475866" lon="126.936851"><ele>37.8</ele></trkpt>
<trkpt lat="37.475995" lon="126.936915"><ele>37.7</ele></trkpt>
<trkpt lat="37.476195" lon="126.937001"><ele>37.2</ele></trkpt>
<trkpt lat="37.476360" lon="126.937026"><ele>37.2</ele></trkpt>
<trkpt lat="37.476523" lon="126.937035"><ele>37.1</ele></trkpt>
<trkpt lat="37.476724" lon="126.936956"><ele>36.9</ele></trkpt>
<trkpt lat="37.476828" lon="126.936890"><ele>36.1</ele></trkpt>
<trkpt lat="37.476966" lon="126.936768"><ele>35.7</ele></trkpt>
<trkpt lat="37.477079" lon="126.936645"><ele>35.7</ele></trkpt>
<trkpt lat="37.477183" lon="126.936466"><ele>35.7</ele></trkpt>
<trkpt lat="37.477289" lon="126.936086"><ele>35.7</ele></trkpt>
<trkpt lat="37.477341" lon="126.935744"><ele>35.6</ele></trkpt>
<trkpt lat="37.477407" lon="126.935367"><ele>35.9</ele></trkpt>
<trkpt lat="37.477444" lon="126.935042"><ele>35.6</ele></trkpt>
<trkpt lat="37.477463" lon="126.934900"><ele>35.4</ele></trkpt>
<trkpt lat="37.477495" lon="126.934665"><ele>34.8</ele></trkpt>
<trkpt lat="37.477617" lon="126.933941"><ele>34.5</ele></trkpt>
<trkpt lat="37.477710" lon="126.933570"><ele>33.9</ele></trkpt>
<trkpt lat="37.477859" lon="126.932990"><ele>33.0</ele></trkpt>
<trkpt lat="37.477995" lon="126.932587"><ele>32.7</ele></trkpt>
<trkpt lat="37.478187" lon="126.932322"><ele>31.3</ele></trkpt>
<trkpt lat="37.478500" lon="126.932039"><ele>31.1</ele></trkpt>
<trkpt lat="37.478803" lon="126.931738"><ele>30.3</ele></trkpt>
<trkpt lat="37.479057" lon="126.931460"><ele>30.3</ele></trkpt>
<trkpt lat="37.479411" lon="126.931075"><ele>30.6</ele></trkpt>
<trkpt lat="37.479797" lon="126.930680"><ele>29.4</ele></trkpt>
<trkpt lat="37.480021" lon="126.930392"><ele>29.5</ele></trkpt>
<trkpt lat="37.480519" lon="126.929861"><ele>29.1</ele></trkpt>
<trkpt lat="37.480732" lon="126.929642"><ele>29.1</ele></trkpt>
<trkpt lat="37.481075" lon="126.929289"><ele>28.7</ele></trkpt>
<trkpt lat="37.481658" lon="126.928676"><ele>27.8</ele></trkpt>
<trkpt lat="37.482287" lon="126.927911"><ele>26.2</ele></trkpt>
<trkpt lat="37.482886" lon="126.927175"><ele>25.7</ele></trkpt>
<trkpt lat="37.484311" lon="126.925431"><ele>21.0</ele></trkpt>
<trkpt lat="37.485680" lon="126.923791"><ele>23.0</ele></trkpt>
<trkpt lat="37.486125" lon="126.923326"><ele>23.6</ele></trkpt>
<trkpt lat="37.486442" lon="126.923062"><ele>22.9</ele></trkpt>
<trkpt lat="37.487063" lon="126.922648"><ele>22.3</ele></trkpt>
<trkpt lat="37.487435" lon="126.922414"><ele>21.9</ele></trkpt>
<trkpt lat="37.487833" lon="126.922150"><ele>21.9</ele></trkpt>
<trkpt lat="37.487955" lon="126.922061"><ele>21.9</ele></trkpt>
<trkpt lat="37.488231" lon="126.921860"><ele>21.5</ele></trkpt>
<trkpt lat="37.488492" lon="126.921561"><ele>21.3</ele></trkpt>
<trkpt lat="37.488843" lon="126.920981"><ele>20.8</ele></trkpt>
<trkpt lat="37.489096" lon="126.920411"><ele>20.9</ele></trkpt>
<trkpt lat="37.489288" lon="126.919809"><ele>20.8</ele></trkpt>
<trkpt lat="37.489358" lon="126.919462"><ele>20.9</ele></trkpt>
<trkpt lat="37.489440" lon="126.919053"><ele>20.8</ele></trkpt>
<trkpt lat="37.489593" lon="126.918447"><ele>21.8</ele></trkpt>
<trkpt lat="37.489564" lon="126.917706"><ele>21.6</ele></trkpt>
<trkpt lat="37.489434" lon="126.917020"><ele>22.0</ele></trkpt>
<trkpt lat="37.489349" lon="126.916680"><ele>22.0</ele></trkpt>
<trkpt lat="37.489277" lon="126.916468"><ele>22.0</ele></trkpt>
<trkpt lat="37.489083" lon="126.915983"><ele>22.0</ele></trkpt>
<trkpt lat="37.487577" lon="126.913628"><ele>21.0</ele></trkpt>
<trkpt lat="37.487294" lon="126.913189"><ele>20.3</ele></trkpt>
<trkpt lat="37.487193" lon="126.913019"><ele>20.3</ele></trkpt>
<trkpt lat="37.487009" lon="126.912710"><ele>19.9</ele></trkpt>
<trkpt lat="37.486588" lon="126.911963"><ele>19.8</ele></trkpt>
<trkpt lat="37.486312" lon="126.911318"><ele>19.3</ele></trkpt>
<trkpt lat="37.486216" lon="126.911030"><ele>18.2</ele></trkpt>
<trkpt lat="37.486039" lon="126.910496"><ele>17.2</ele></trkpt>
<trkpt lat="37.485557" lon="126.908781"><ele>17.7</ele></trkpt>
<trkpt lat="37.485499" lon="126.908578"><ele>17.5</ele></trkpt>
<trkpt lat="37.484947" lon="126.906577"><ele>17.8</ele></trkpt>
<trkpt lat="37.484803" lon="126.905529"><ele>18.8</ele></trkpt>
<trkpt lat="37.484822" lon="126.904537"><ele>19.2</ele></trkpt>
<trkpt lat="37.484884" lon="126.903318"><ele>20.0</ele></trkpt>
<trkpt lat="37.484931" lon="126.902559"><ele>20.2</ele></trkpt>
<trkpt lat="37.485066" lon="126.901855"><ele>19.3</ele></trkpt>
<trkpt lat="37.485305" lon="126.901068"><ele>18.0</ele></trkpt>
<trkpt lat="37.485606" lon="126.900385"><ele>16.7</ele></trkpt>
<trkpt lat="37.485728" lon="126.900163"><ele>16.7</ele></trkpt>
<trkpt lat="37.486190" lon="126.899380"><ele>15.8</ele></trkpt>
<trkpt lat="37.486629" lon="126.898660"><ele>15.3</ele></trkpt>
<trkpt lat="37.487144" lon="126.897933"><ele>15.0</ele></trkpt>
<trkpt lat="37.487489" lon="126.897514"><ele>15.8</ele></trkpt>
<trkpt lat="37.488035" lon="126.897023"><ele>16.4</ele></trkpt>
<trkpt lat="37.488377" lon="126.896774"><ele>16.5</ele></trkpt>
<trkpt lat="37.488907" lon="126.896509"><ele>16.5</ele></trkpt>
<trkpt lat="37.489789" lon="126.896165"><ele>16.8</ele></trkpt>
<trkpt lat="37.490447" lon="126.895904"><ele>17.0</ele></trkpt>
<trkpt lat="37.491298" lon="126.895596"><ele>17.6</ele></trkpt>
<trkpt lat="37.491979" lon="126.895331"><ele>17.6</ele></trkpt>
<trkpt lat="37.492932" lon="126.894979"><ele>17.2</ele></trkpt>
<trkpt lat="37.493583" lon="126.894724"><ele>16.8</ele></trkpt>
<trkpt lat="37.494290" lon="126.894460"><ele>16.2</ele></trkpt>
<trkpt lat="37.494734" lon="126.894297"><ele>14.8</ele></trkpt>
<trkpt lat="37.495515" lon="126.894014"><ele>14.6</ele></trkpt>
<trkpt lat="37.496313" lon="126.893750"><ele>15.1</ele></trkpt>
<trkpt lat="37.497065" lon="126.893567"><ele>15.5</ele></trkpt>
<trkpt lat="37.497282" lon="126.893504"><ele>15.6</ele></trkpt>
<trkpt lat="37.497568" lon="126.893421"><ele>15.6</ele></trkpt>
<trkpt lat="37.497998" lon="126.893319"><ele>15.6</ele></trkpt>
<trkpt lat="37.498301" lon="126.893248"><ele>16.0</ele></trkpt>
<trkpt lat="37.498574" lon="126.893166"><ele>16.0</ele></trkpt>
<trkpt lat="37.499845" lon="126.892960"><ele>15.2</ele></trkpt>
<trkpt lat="37.500557" lon="126.892832"><ele>14.9</ele></trkpt>
<trkpt lat="37.501151" lon="126.892749"><ele>14.9</ele></trkpt>
<trkpt lat="37.501720" lon="126.892744"><ele>14.1</ele></trkpt>
<trkpt lat="37.501931" lon="126.892749"><ele>14.1</ele></trkpt>
<trkpt lat="37.502077" lon="126.892767"><ele>13.9</ele></trkpt>
<trkpt lat="37.502329" lon="126.892773"><ele>13.7</ele></trkpt>
<trkpt lat="37.503437" lon="126.893000"><ele>14.3</ele></trkpt>
<trkpt lat="37.503788" lon="126.893057"><ele>14.2</ele></trkpt>
<trkpt lat="37.504075" lon="126.893108"><ele>14.0</ele></trkpt>
<trkpt lat="37.504368" lon="126.893137"><ele>13.9</ele></trkpt>
<trkpt lat="37.504670" lon="126.893193"><ele>13.9</ele></trkpt>
<trkpt lat="37.505072" lon="126.893269"><ele>14.1</ele></trkpt>
<trkpt lat="37.505490" lon="126.893324"><ele>14.1</ele></trkpt>
<trkpt lat="37.505836" lon="126.893332"><ele>14.1</ele></trkpt>
<trkpt lat="37.506555" lon="126.893255"><ele>12.9</ele></trkpt>
<trkpt lat="37.506952" lon="126.893232"><ele>13.0</ele></trkpt>
<trkpt lat="37.507370" lon="126.893041"><ele>13.4</ele></trkpt>
<trkpt lat="37.507804" lon="126.892789"><ele>13.5</ele></trkpt>
<trkpt lat="37.507924" lon="126.892727"><ele>13.5</ele></trkpt>
<trkpt lat="37.508417" lon="126.892402"><ele>13.1</ele></trkpt>
<trkpt lat="37.508632" lon="126.892238"><ele>12.8</ele></trkpt>
<trkpt lat="37.508905" lon="126.891996"><ele>12.3</ele></trkpt>
<trkpt lat="37.509523" lon="126.891611"><ele>13.0</ele></trkpt>
<trkpt lat="37.510014" lon="126.891305"><ele>12.6</ele></trkpt>
<trkpt lat="37.510385" lon="126.891077"><ele>12.1</ele></trkpt>
<trkpt lat="37.510658" lon="126.890858"><ele>11.0</ele></trkpt>
<trkpt lat="37.510762" lon="126.890731"><ele>11.0</ele></trkpt>
<trkpt lat="37.511407" lon="126.889816"><ele>10.4</ele></trkpt>
<trkpt lat="37.511873" lon="126.889205"><ele>10.4</ele></trkpt>
<trkpt lat="37.512130" lon="126.888788"><ele>9.3</ele></trkpt>
<trkpt lat="37.512312" lon="126.888440"><ele>9.3</ele></trkpt>
<trkpt lat="37.512600" lon="126.887777"><ele>9.3</ele></trkpt>
<trkpt lat="37.512910" lon="126.886951"><ele>9.3</ele></trkpt>
<trkpt lat="37.513285" lon="126.886208"><ele>9.4</ele></trkpt>
<trkpt lat="37.513391" lon="126.885961"><ele>9.4</ele></trkpt>
<trkpt lat="37.513685" lon="126.884955"><ele>8.7</ele></trkpt>
<trkpt lat="37.514259" lon="126.883748"><ele>9.4</ele></trkpt>
<trkpt lat="37.514454" lon="126.883382"><ele>9.4</ele></trkpt>
<trkpt lat="37.514719" lon="126.882970"><ele>8.4</ele></trkpt>
<trkpt lat="37.514852" lon="126.882744"><ele>8.4</ele></trkpt>
<trkpt lat="37.514977" lon="126.882456"><ele>8.4</ele></trkpt>
<trkpt lat="37.515152" lon="126.882232"><ele>9.1</ele></trkpt>
<trkpt lat="37.515587" lon="126.881536"><ele>9.8</ele></trkpt>
<trkpt lat="37.515629" lon="126.881342"><ele>9.8</ele></trkpt>
<trkpt lat="37.515634" lon="126.881151"><ele>10.3</ele></trkpt>
<trkpt lat="37.516159" lon="126.881492"><ele>10.6</ele></trkpt>
<trkpt lat="37.516049" lon="126.881547"><ele>10.8</ele></trkpt>
<trkpt lat="37.515950" lon="126.881664"><ele>10.8</ele></trkpt>
<trkpt lat="37.515582" lon="126.882620"><ele>12.1</ele></trkpt>
<trkpt lat="37.515409" lon="126.883053"><ele>12.5</ele></trkpt>
<trkpt lat="37.515166" lon="126.883449"><ele>12.2</ele></trkpt>
<trkpt lat="37.515139" lon="126.883803"><ele>12.2</ele></trkpt>
<trkpt lat="37.515052" lon="126.884017"><ele>12.2</ele></trkpt>
<trkpt lat="37.514863" lon="126.884255"><ele>12.0</ele></trkpt>
<trkpt lat="37.514823" lon="126.884652"><ele>11.7</ele></trkpt>
<trkpt lat="37.514540" lon="126.884967"><ele>11.1</ele></trkpt>
<trkpt lat="37.514369" lon="126.885163"><ele>11.2</ele></trkpt>
<trkpt lat="37.514064" lon="126.886166"><ele>10.4</ele></trkpt>
<trkpt lat="37.513780" lon="126.886597"><ele>10.4</ele></trkpt>
<trkpt lat="37.513520" lon="126.887072"><ele>10.4</ele></trkpt>
<trkpt lat="37.513377" lon="126.887615"><ele>10.3</ele></trkpt>
<trkpt lat="37.513273" lon="126.887794"><ele>10.0</ele></trkpt>
<trkpt lat="37.513144" lon="126.888148"><ele>10.0</ele></trkpt>
<trkpt lat="37.512835" lon="126.888939"><ele>10.3</ele></trkpt>
<trkpt lat="37.512473" lon="126.889641"><ele>9.2</ele></trkpt>
<trkpt lat="37.512128" lon="126.890151"><ele>10.2</ele></trkpt>
<trkpt lat="37.511421" lon="126.890738"><ele>10.8</ele></trkpt>
<trkpt lat="37.511058" lon="126.891102"><ele>11.5</ele></trkpt>
<trkpt lat="37.510843" lon="126.891317"><ele>11.5</ele></trkpt>
<trkpt lat="37.510041" lon="126.891997"><ele>12.4</ele></trkpt>
<trkpt lat="37.509673" lon="126.892329"><ele>12.9</ele></trkpt>
<trkpt lat="37.509009" lon="126.892805"><ele>12.3</ele></trkpt>
<trkpt lat="37.508845" lon="126.892965"><ele>12.0</ele></trkpt>
<trkpt lat="37.508304" lon="126.893250"><ele>11.2</ele></trkpt>
<trkpt lat="37.508069" lon="126.893437"><ele>11.4</ele></trkpt>
<trkpt lat="37.507283" lon="126.893637"><ele>11.3</ele></trkpt>
<trkpt lat="37.507074" lon="126.893720"><ele>10.9</ele></trkpt>
<trkpt lat="37.506965" lon="126.893751"><ele>10.9</ele></trkpt>
<trkpt lat="37.506363" lon="126.893939"><ele>11.4</ele></trkpt>
<trkpt lat="37.505988" lon="126.893903"><ele>12.1</ele></trkpt>
<trkpt lat="37.505841" lon="126.893885"><ele>12.3</ele></trkpt>
<trkpt lat="37.504958" lon="126.893830"><ele>13.1</ele></trkpt>
<trkpt lat="37.504286" lon="126.893656"><ele>13.2</ele></trkpt>
<trkpt lat="37.504162" lon="126.893670"><ele>13.2</ele></trkpt>
<trkpt lat="37.503529" lon="126.893532"><ele>13.6</ele></trkpt>
<trkpt lat="37.501982" lon="126.893256"><ele>12.8</ele></trkpt>
<trkpt lat="37.501393" lon="126.893280"><ele>12.5</ele></trkpt>
<trkpt lat="37.500870" lon="126.893342"><ele>12.2</ele></trkpt>
<trkpt lat="37.500165" lon="126.893457"><ele>12.0</ele></trkpt>
<trkpt lat="37.499452" lon="126.893559"><ele>12.7</ele></trkpt>
<trkpt lat="37.498692" lon="126.893658"><ele>13.4</ele></trkpt>
<trkpt lat="37.498344" lon="126.893700"><ele>14.1</ele></trkpt>
<trkpt lat="37.498083" lon="126.893738"><ele>14.1</ele></trkpt>
<trkpt lat="37.497951" lon="126.893722"><ele>14.1</ele></trkpt>
<trkpt lat="37.497647" lon="126.893802"><ele>14.2</ele></trkpt>
<trkpt lat="37.497288" lon="126.893905"><ele>14.2</ele></trkpt>
<trkpt lat="37.496813" lon="126.893991"><ele>14.2</ele></trkpt>
<trkpt lat="37.496464" lon="126.894077"><ele>14.2</ele></trkpt>
<trkpt lat="37.495947" lon="126.894227"><ele>14.2</ele></trkpt>
<trkpt lat="37.495243" lon="126.894466"><ele>14.4</ele></trkpt>
<trkpt lat="37.494773" lon="126.894619"><ele>14.2</ele></trkpt>
<trkpt lat="37.494275" lon="126.894798"><ele>15.3</ele></trkpt>
<trkpt lat="37.494111" lon="126.894849"><ele>16.3</ele></trkpt>
<trkpt lat="37.492801" lon="126.895349"><ele>17.1</ele></trkpt>
<trkpt lat="37.492418" lon="126.895483"><ele>17.2</ele></trkpt>
<trkpt lat="37.492134" lon="126.895596"><ele>17.1</ele></trkpt>
<trkpt lat="37.491837" lon="126.895714"><ele>17.1</ele></trkpt>
<trkpt lat="37.491549" lon="126.895819"><ele>17.0</ele></trkpt>
<trkpt lat="37.491109" lon="126.895980"><ele>17.0</ele></trkpt>
<trkpt lat="37.490923" lon="126.896100"><ele>16.7</ele></trkpt>
<trkpt lat="37.490559" lon="126.896202"><ele>16.6</ele></trkpt>
<trkpt lat="37.490060" lon="126.896388"><ele>16.4</ele></trkpt>
<trkpt lat="37.489486" lon="126.896605"><ele>16.5</ele></trkpt>
<trkpt lat="37.489261" lon="126.896691"><ele>16.9</ele></trkpt>
<trkpt lat="37.489019" lon="126.896783"><ele>17.1</ele></trkpt>
<trkpt lat="37.488670" lon="126.896953"><ele>17.0</ele></trkpt>
<trkpt lat="37.488495" lon="126.897068"><ele>17.0</ele></trkpt>
<trkpt lat="37.488168" lon="126.897273"><ele>17.5</ele></trkpt>
<trkpt lat="37.487914" lon="126.897507"><ele>17.8</ele></trkpt>
<trkpt lat="37.487691" lon="126.897724"><ele>17.4</ele></trkpt>
<trkpt lat="37.487443" lon="126.897973"><ele>17.4</ele></trkpt>
<trkpt lat="37.487221" lon="126.898254"><ele>17.0</ele></trkpt>
<trkpt lat="37.487026" lon="126.898499"><ele>16.8</ele></trkpt>
<trkpt lat="37.486803" lon="126.898835"><ele>17.0</ele></trkpt>
<trkpt lat="37.486543" lon="126.899286"><ele>16.8</ele></trkpt>
<trkpt lat="37.486201" lon="126.899848"><ele>17.1</ele></trkpt>
<trkpt lat="37.486000" lon="126.900216"><ele>17.6</ele></trkpt>
<trkpt lat="37.485821" lon="126.900544"><ele>17.6</ele></trkpt>
<trkpt lat="37.485743" lon="126.900710"><ele>17.4</ele></trkpt>
<trkpt lat="37.485445" lon="126.901421"><ele>18.0</ele></trkpt>
<trkpt lat="37.485382" lon="126.901639"><ele>18.0</ele></trkpt>
<trkpt lat="37.485294" lon="126.901963"><ele>18.6</ele></trkpt>
<trkpt lat="37.485219" lon="126.902311"><ele>19.0</ele></trkpt>
<trkpt lat="37.485169" lon="126.902691"><ele>18.9</ele></trkpt>
<trkpt lat="37.485134" lon="126.903102"><ele>19.1</ele></trkpt>
<trkpt lat="37.485089" lon="126.904000"><ele>18.9</ele></trkpt>
<trkpt lat="37.485057" lon="126.904696"><ele>18.2</ele></trkpt>
<trkpt lat="37.485030" lon="126.905183"><ele>18.1</ele></trkpt>
<trkpt lat="37.485026" lon="126.905474"><ele>18.0</ele></trkpt>
<trkpt lat="37.485045" lon="126.905745"><ele>17.9</ele></trkpt>
<trkpt lat="37.485095" lon="126.906043"><ele>17.9</ele></trkpt>
<trkpt lat="37.485154" lon="126.906297"><ele>17.7</ele></trkpt>
<trkpt lat="37.485607" lon="126.907786"><ele>17.8</ele></trkpt>
<trkpt lat="37.486223" lon="126.909848"><ele>18.5</ele></trkpt>
<trkpt lat="37.486450" lon="126.910591"><ele>19.4</ele></trkpt>
<trkpt lat="37.486669" lon="126.911227"><ele>21.9</ele></trkpt>
<trkpt lat="37.487101" lon="126.912177"><ele>22.3</ele></trkpt>
<trkpt lat="37.487224" lon="126.912381"><ele>22.4</ele></trkpt>
<trkpt lat="37.487428" lon="126.912754"><ele>23.0</ele></trkpt>
<trkpt lat="37.487503" lon="126.912890"><ele>23.0</ele></trkpt>
<trkpt lat="37.488183" lon="126.914043"><ele>26.3</ele></trkpt>
<trkpt lat="37.488796" lon="126.915038"><ele>27.0</ele></trkpt>
<trkpt lat="37.489131" lon="126.915468"><ele>27.0</ele></trkpt>
<trkpt lat="37.489347" lon="126.915622"><ele>27.0</ele></trkpt>
</trkseg></trk></gpx>
