<?xml version="1.0" encoding="UTF-8"?>
<gpx version="1.1" creator="Runvis" xmlns="http://www.topografix.com/GPX/1/1">
<trk><name>남산 북측순환로</name><trkseg>
<trkpt lat="37.550765" lon="126.998420"><ele>125.0</ele></trkpt>
<trkpt lat="37.550809" lon="126.997748"><ele>123.6</ele></trkpt>
<trkpt lat="37.550902" lon="126.997585"><ele>123.6</ele></trkpt>
<trkpt lat="37.551151" lon="126.997417"><ele>123.6</ele></trkpt>
<trkpt lat="37.551301" lon="126.997433"><ele>123.6</ele></trkpt>
<trkpt lat="37.551590" lon="126.997566"><ele>120.6</ele></trkpt>
<trkpt lat="37.552244" lon="126.997866"><ele>120.3</ele></trkpt>
<trkpt lat="37.553059" lon="126.998307"><ele>117.3</ele></trkpt>
<trkpt lat="37.553231" lon="126.998384"><ele>118.0</ele></trkpt>
<trkpt lat="37.553477" lon="126.998451"><ele>118.1</ele></trkpt>
<trkpt lat="37.554037" lon="126.998532"><ele>119.0</ele></trkpt>
<trkpt lat="37.554145" lon="126.998558"><ele>117.7</ele></trkpt>
<trkpt lat="37.554260" lon="126.998628"><ele>116.7</ele></trkpt>
<trkpt lat="37.554321" lon="126.998762"><ele>116.7</ele></trkpt>
<trkpt lat="37.554547" lon="126.999443"><ele>115.9</ele></trkpt>
<trkpt lat="37.554683" lon="126.999739"><ele>115.5</ele></trkpt>
<trkpt lat="37.554838" lon="126.999940"><ele>115.2</ele></trkpt>
<trkpt lat="37.555206" lon="127.000275"><ele>113.1</ele></trkpt>
<trkpt lat="37.555338" lon="127.000337"><ele>112.1</ele></trkpt>
<trkpt lat="37.555464" lon="127.000341"><ele>111.0</ele></trkpt>
<trkpt lat="37.555630" lon="127.000073"><ele>108.8</ele></trkpt>
<trkpt lat="37.555687" lon="126.999799"><ele>107.0</ele></trkpt>
<trkpt lat="37.555753" lon="126.998882"><ele>96.4</ele></trkpt>
<trkpt lat="37.555755" lon="126.998689"><ele>96.4</ele></trkpt>
<trkpt lat="37.555702" lon="126.998506"><ele>96.6</ele></trkpt>
<trkpt lat="37.555638" lon="126.998383"><ele>96.1</ele></trkpt>
<trkpt lat="37.555519" lon="126.998198"><ele>94.8</ele></trkpt>
<trkpt lat="37.555336" lon="126.997959"><ele>92.8</ele></trkpt>
<trkpt lat="37.555160" lon="126.997785"><ele>90.3</ele></trkpt>
<trkpt lat="37.555026" lon="126.997570"><ele>89.4</ele></trkpt>
<trkpt lat="37.554936" lon="126.997482"><ele>90.0</ele></trkpt>
<trkpt lat="37.554811" lon="126.997444"><ele>90.5</ele></trkpt>
<trkpt lat="37.554690" lon="126.997444"><ele>90.5</ele></trkpt>
<trkpt lat="37.554407" lon="126.997482"><ele>88.2</ele></trkpt>
<trkpt lat="37.553920" lon="126.997428"><ele>86.8</ele></trkpt>
<trkpt lat="37.553586" lon="126.997431"><ele>87.9</ele></trkpt>
<trkpt lat="37.553356" lon="126.997460"><ele>88.3</ele></trkpt>
<trkpt lat="37.553165" lon="126.997484"><ele>88.7</ele></trkpt>
<trkpt lat="37.553023" lon="126.997495"><ele>90.1</ele></trkpt>
<trkpt lat="37.552901" lon="126.997452"><ele>94.7</ele></trkpt>
<trkpt lat="37.552512" lon="126.997294"><ele>97.9</ele></trkpt>
<trkpt lat="37.552306" lon="126.997128"><ele>97.9</ele></trkpt>
<trkpt lat="37.552110" lon="126.996826"><ele>102.4</ele></trkpt>
<trkpt lat="37.551738" lon="126.996210"><ele>110.9</ele></trkpt>
<trkpt lat="37.551685" lon="126.996036"><ele>111.6</ele></trkpt>
<trkpt lat="37.551685" lon="126.995854"><ele>113.5</ele></trkpt>
<trkpt lat="37.551775" lon="126.995690"><ele>113.5</ele></trkpt>
<trkpt lat="37.552221" lon="126.995226"><ele>115.0</ele></trkpt>
<trkpt lat="37.552242" lon="126.995070"><ele>114.2</ele></trkpt>
<trkpt lat="37.552193" lon="126.994703"><ele>114.4</ele></trkpt>
<trkpt lat="37.552240" lon="126.994526"><ele>114.2</ele></trkpt>
<trkpt lat="37.552353" lon="126.994438"><ele>114.1</ele></trkpt>
<trkpt lat="37.552495" lon="126.994440"><ele>113.8</ele></trkpt>
<trkpt lat="37.552953" lon="126.994641"><ele>110.5</ele></trkpt>
<trkpt lat="37.553114" lon="126.994649"><ele>109.4</ele></trkpt>
<trkpt lat="37.553382" lon="126.994585"><ele>107.7</ele></trkpt>
<trkpt lat="37.553478" lon="126.994440"><ele>107.1</ele></trkpt>
<trkpt lat="37.553512" lon="126.994207"><ele>106.3</ele></trkpt>
<trkpt lat="37.553588" lon="126.994065"><ele>105.3</ele></trkpt>
<trkpt lat="37.553744" lon="126.993989"><ele>104.2</ele></trkpt>
<trkpt lat="37.553899" lon="126.994006"><ele>102.9</ele></trkpt>
<trkpt lat="37.554128" lon="126.994078"><ele>102.5</ele></trkpt>
<trkpt lat="37.554250" lon="126.994078"><ele>102.5</ele></trkpt>
<trkpt lat="37.554360" lon="126.993995"><ele>102.5</ele></trkpt>
<trkpt lat="37.554449" lon="126.993874"><ele>102.1</ele></trkpt>
<trkpt lat="37.554506" lon="126.993689"><ele>103.4</ele></trkpt>
<trkpt lat="37.554552" lon="126.993413"><ele>104.9</ele></trkpt>
<trkpt lat="37.554594" lon="126.993086"><ele>108.1</ele></trkpt>
<trkpt lat="37.555173" lon="126.991602"><ele>109.8</ele></trkpt>
<trkpt lat="37.555249" lon="126.991430"><ele>109.5</ele></trkpt>
<trkpt lat="37.555398" lon="126.991370"><ele>111.3</ele></trkpt>
<trkpt lat="37.555545" lon="126.991438"><ele>110.5</ele></trkpt>
<trkpt lat="37.555962" lon="126.991687"><ele>109.1</ele></trkpt>
<trkpt lat="37.556410" lon="126.991948"><ele>108.0</ele></trkpt>
<trkpt lat="37.556576" lon="126.991973"><ele>107.5</ele></trkpt>
<trkpt lat="37.556772" lon="126.991938"><ele>106.7</ele></trkpt>
<trkpt lat="37.556891" lon="126.991822"><ele>104.7</ele></trkpt>
<trkpt lat="37.557031" lon="126.991514"><ele>102.8</ele></trkpt>
<trkpt lat="37.557033" lon="126.991369"><ele>102.1</ele></trkpt>
<trkpt lat="37.556982" lon="126.991232"><ele>102.1</ele></trkpt>
<trkpt lat="37.556888" lon="126.991090"><ele>102.9</ele></trkpt>
<trkpt lat="37.556734" lon="126.990862"><ele>102.6</ele></trkpt>
<trkpt lat="37.556773" lon="126.990581"><ele>102.7</ele></trkpt>
<trkpt lat="37.556875" lon="126.990312"><ele>102.4</ele></trkpt>
<trkpt lat="37.556895" lon="126.990152"><ele>102.1</ele></trkpt>
<trkpt lat="37.556835" lon="126.990001"><ele>102.1</ele></trkpt>
<trkpt lat="37.556752" lon="126.989854"><ele>102.8</ele></trkpt>
<trkpt lat="37.556574" lon="126.989647"><ele>105.1</ele></trkpt>
<trkpt lat="37.556521" lon="126.989481"><ele>106.5</ele></trkpt>
<trkpt lat="37.556521" lon="126.989207"><ele>108.4</ele></trkpt>
<trkpt lat="37.556502" lon="126.989070"><ele>109.9</ele></trkpt>
<trkpt lat="37.556418" lon="126.988912"><ele>109.9</ele></trkpt>
<trkpt lat="37.556320" lon="126.988848"><ele>110.5</ele></trkpt>
<trkpt lat="37.555373" lon="126.988312"><ele>115.3</ele></trkpt>
<trkpt lat="37.555260" lon="126.988233"><ele>114.8</ele></trkpt>
<trkpt lat="37.555205" lon="126.988073"><ele>114.7</ele></trkpt>
<trkpt lat="37.555308" lon="126.987852"><ele>114.2</ele></trkpt>
<trkpt lat="37.555653" lon="126.987714"><ele>116.0</ele></trkpt>
<trkpt lat="37.555789" lon="126.987619"><ele>116.0</ele></trkpt>
<trkpt lat="37.555870" lon="126.987395"><ele>116.0</ele></trkpt>
<trkpt lat="37.555876" lon="126.987008"><ele>114.7</ele></trkpt>
<trkpt lat="37.555765" lon="126.986716"><ele>112.9</ele></trkpt>
<trkpt lat="37.555644" lon="126.986627"><ele>111.4</ele></trkpt>
<trkpt lat="37.555332" lon="126.986626"><ele>108.4</ele></trkpt>
<trkpt lat="37.555215" lon="126.986563"><ele>106.6</ele></trkpt>
<trkpt lat="37.555200" lon="126.986311"><ele>106.1</ele></trkpt>
<trkpt lat="37.555595" lon="126.985965"><ele>103.2</ele></trkpt>
<trkpt lat="37.555738" lon="126.985741"><ele>101.8</ele></trkpt>
<trkpt lat="37.555831" lon="126.985552"><ele>101.9</ele></trkpt>
<trkpt lat="37.555816" lon="126.985346"><ele>100.5</ele></trkpt>
<trkpt lat="37.555707" lon="126.985267"><ele>99.9</ele></trkpt>
<trkpt lat="37.555554" lon="126.985080"><ele>99.5</ele></trkpt>
<trkpt lat="37.555540" lon="126.984902"><ele>98.8</ele></trkpt>
<trkpt lat="37.555597" lon="126.984640"><ele>97.8</ele></trkpt>
<trkpt lat="37.555606" lon="126.984433"><ele>97.2</ele></trkpt>
<trkpt lat="37.555492" lon="126.984297"><ele>97.0</ele></trkpt>
<trkpt lat="37.555089" lon="126.984140"><ele>96.4</ele></trkpt>
<trkpt lat="37.554968" lon="126.983953"><ele>96.1</ele></trkpt>
<trkpt lat="37.554857" lon="126.983811"><ele>95.8</ele></trkpt>
<trkpt lat="37.554688" lon="126.983722"><ele>95.0</ele></trkpt>
<trkpt lat="37.554578" lon="126.983613"><ele>95.2</ele></trkpt>
<trkpt lat="37.554538" lon="126.983486"><ele>95.0</ele></trkpt>
<trkpt lat="37.554497" lon="126.983333"><ele>95.0</ele></trkpt>
<trkpt lat="37.554493" lon="126.983189"><ele>95.0</ele></trkpt>
<trkpt lat="37.554497" lon="126.983333"><ele>95.0</ele></trkpt>
<trkpt lat="37.554538" lon="126.983486"><ele>94.8</ele></trkpt>
<trkpt lat="37.554578" lon="126.983613"><ele>95.0</ele></trkpt>
<trkpt lat="37.554688" lon="126.983722"><ele>94.8</ele></trkpt>
<trkpt lat="37.554857" lon="126.983811"><ele>95.5</ele></trkpt>
<trkpt lat="37.554968" lon="126.983953"><ele>95.9</ele></trkpt>
<trkpt lat="37.555089" lon="126.984140"><ele>96.2</ele></trkpt>
<trkpt lat="37.555409" lon="126.984277"><ele>96.8</ele></trkpt>
<trkpt lat="37.555549" lon="126.984332"><ele>96.8</ele></trkpt>
<trkpt lat="37.555611" lon="126.984519"><ele>97.5</ele></trkpt>
<trkpt lat="37.555557" lon="126.984785"><ele>98.4</ele></trkpt>
<trkpt lat="37.555539" lon="126.985001"><ele>99.2</ele></trkpt>
<trkpt lat="37.555707" lon="126.985267"><ele>100.2</ele></trkpt>
<trkpt lat="37.555816" lon="126.985346"><ele>100.2</ele></trkpt>
<trkpt lat="37.555831" lon="126.985552"><ele>101.6</ele></trkpt>
<trkpt lat="37.555738" lon="126.985741"><ele>101.5</ele></trkpt>
<trkpt lat="37.555595" lon="126.985965"><ele>102.4</ele></trkpt>
<trkpt lat="37.555263" lon="126.986220"><ele>105.8</ele></trkpt>
<trkpt lat="37.555192" lon="126.986437"><ele>106.3</ele></trkpt>
<trkpt lat="37.555332" lon="126.986626"><ele>108.1</ele></trkpt>
<trkpt lat="37.555644" lon="126.986627"><ele>110.9</ele></trkpt>
<trkpt lat="37.555765" lon="126.986716"><ele>112.9</ele></trkpt>
<trkpt lat="37.555876" lon="126.987008"><ele>114.7</ele></trkpt>
<trkpt lat="37.555870" lon="126.987395"><ele>115.5</ele></trkpt>
<trkpt lat="37.555789" lon="126.987619"><ele>116.0</ele></trkpt>
<trkpt lat="37.555653" lon="126.987714"><ele>116.0</ele></trkpt>
<trkpt lat="37.555308" lon="126.987852"><ele>114.2</ele></trkpt>
<trkpt lat="37.555205" lon="126.988073"><ele>114.7</ele></trkpt>
<trkpt lat="37.555260" lon="126.988233"><ele>114.8</ele></trkpt>
<trkpt lat="37.555373" lon="126.988312"><ele>115.3</ele></trkpt>
<trkpt lat="37.556320" lon="126.988848"><ele>109.8</ele></trkpt>
<trkpt lat="37.556418" lon="126.988912"><ele>109.8</ele></trkpt>
<trkpt lat="37.556502" lon="126.989070"><ele>109.8</ele></trkpt>
<trkpt lat="37.556521" lon="126.989207"><ele>108.2</ele></trkpt>
<trkpt lat="37.556521" lon="126.989481"><ele>106.4</ele></trkpt>
<trkpt lat="37.556574" lon="126.989647"><ele>104.9</ele></trkpt>
<trkpt lat="37.556752" lon="126.989854"><ele>102.7</ele></trkpt>
<trkpt lat="37.556835" lon="126.990001"><ele>101.9</ele></trkpt>
<trkpt lat="37.556895" lon="126.990152"><ele>101.9</ele></trkpt>
<trkpt lat="37.556875" lon="126.990312"><ele>102.3</ele></trkpt>
<trkpt lat="37.556773" lon="126.990581"><ele>102.5</ele></trkpt>
<trkpt lat="37.556721" lon="126.990740"><ele>102.5</ele></trkpt>
<trkpt lat="37.556888" lon="126.991090"><ele>102.8</ele></trkpt>
<trkpt lat="37.556982" lon="126.991232"><ele>102.0</ele></trkpt>
<trkpt lat="37.557033" lon="126.991369"><ele>102.0</ele></trkpt>
<trkpt lat="37.557031" lon="126.991514"><ele>102.6</ele></trkpt>
<trkpt lat="37.556891" lon="126.991822"><ele>104.6</ele></trkpt>
<trkpt lat="37.556772" lon="126.991938"><ele>106.6</ele></trkpt>
<trkpt lat="37.556576" lon="126.991973"><ele>107.4</ele></trkpt>
<trkpt lat="37.556410" lon="126.991948"><ele>107.9</ele></trkpt>
<trkpt lat="37.556008" lon="126.991714"><ele>109.1</ele></trkpt>
<trkpt lat="37.555545" lon="126.991438"><ele>110.5</ele></trkpt>
<trkpt lat="37.555398" lon="126.991370"><ele>111.3</ele></trkpt>
<trkpt lat="37.555249" lon="126.991430"><ele>109.5</ele></trkpt>
<trkpt lat="37.555173" lon="126.991602"><ele>109.8</ele></trkpt>
<trkpt lat="37.554594" lon="126.993086"><ele>108.1</ele></trkpt>
<trkpt lat="37.554552" lon="126.993413"><ele>104.9</ele></trkpt>
<trkpt lat="37.554506" lon="126.993689"><ele>103.4</ele></trkpt>
<trkpt lat="37.554449" lon="126.993874"><ele>102.1</ele></trkpt>
<trkpt lat="37.554360" lon="126.993995"><ele>102.5</ele></trkpt>
<trkpt lat="37.554250" lon="126.994078"><ele>102.5</ele></trkpt>
<trkpt lat="37.554128" lon="126.994078"><ele>102.5</ele></trkpt>
<trkpt lat="37.553899" lon="126.994006"><ele>102.9</ele></trkpt>
<trkpt lat="37.553744" lon="126.993989"><ele>104.2</ele></trkpt>
<trkpt lat="37.553588" lon="126.994065"><ele>105.3</ele></trkpt>
<trkpt lat="37.553512" lon="126.994207"><ele>106.3</ele></trkpt>
<trkpt lat="37.553478" lon="126.994440"><ele>107.1</ele></trkpt>
<trkpt lat="37.553382" lon="126.994585"><ele>107.7</ele></trkpt>
<trkpt lat="37.553114" lon="126.994649"><ele>109.4</ele></trkpt>
<trkpt lat="37.552953" lon="126.994641"><ele>110.5</ele></trkpt>
<trkpt lat="37.552495" lon="126.994440"><ele>113.8</ele></trkpt>
<trkpt lat="37.552353" lon="126.994438"><ele>114.1</ele></trkpt>
<trkpt lat="37.552240" lon="126.994526"><ele>114.2</ele></trkpt>
<trkpt lat="37.552193" lon="126.994703"><ele>114.4</ele></trkpt>
<trkpt lat="37.552242" lon="126.995070"><ele>114.2</ele></trkpt>
<trkpt lat="37.552221" lon="126.995226"><ele>115.0</ele></trkpt>
<trkpt lat="37.551775" lon="126.995690"><ele>113.5</ele></trkpt>
<trkpt lat="37.551685" lon="126.995854"><ele>113.5</ele></trkpt>
<trkpt lat="37.551685" lon="126.996036"><ele>111.6</ele></trkpt>
<trkpt lat="37.551738" lon="126.996210"><ele>110.9</ele></trkpt>
<trkpt lat="37.552110" lon="126.996826"><ele>102.4</ele></trkpt>
<trkpt lat="37.552306" lon="126.997128"><ele>97.9</ele></trkpt>
<trkpt lat="37.552512" lon="126.997294"><ele>97.9</ele></trkpt>
<trkpt lat="37.552901" lon="126.997452"><ele>94.7</ele></trkpt>
<trkpt lat="37.553023" lon="126.997495"><ele>90.1</ele></trkpt>
<trkpt lat="37.553165" lon="126.997484"><ele>88.7</ele></trkpt>
<trkpt lat="37.553356" lon="126.997460"><ele>88.3</ele></trkpt>
<trkpt lat="37.553586" lon="126.997431"><ele>87.9</ele></trkpt>
<trkpt lat="37.553920" lon="126.997428"><ele>86.8</ele></trkpt>
<trkpt lat="37.554407" lon="126.997482"><ele>88.2</ele></trkpt>
<trkpt lat="37.554690" lon="126.997444"><ele>90.5</ele></trkpt>
<trkpt lat="37.554811" lon="126.997444"><ele>90.5</ele></trkpt>
<trkpt lat="37.554936" lon="126.997482"><ele>90.0</ele></trkpt>
<trkpt lat="37.555026" lon="126.997570"><ele>89.4</ele></trkpt>
<trkpt lat="37.555160" lon="126.997785"><ele>90.3</ele></trkpt>
<trkpt lat="37.555336" lon="126.997959"><ele>92.8</ele></trkpt>
<trkpt lat="37.555519" lon="126.998198"><ele>95.5</ele></trkpt>
<trkpt lat="37.555638" lon="126.998383"><ele>96.1</ele></trkpt>
<trkpt lat="37.555702" lon="126.998506"><ele>96.6</ele></trkpt>
<trkpt lat="37.555755" lon="126.998689"><ele>96.4</ele></trkpt>
<trkpt lat="37.555753" lon="126.998882"><ele>96.4</ele></trkpt>
<trkpt lat="37.555687" lon="126.999799"><ele>107.0</ele></trkpt>
<trkpt lat="37.555630" lon="127.000073"><ele>108.8</ele></trkpt>
<trkpt lat="37.555532" lon="127.000290"><ele>108.8</ele></trkpt>
<trkpt lat="37.555338" lon="127.000337"><ele>112.1</ele></trkpt>
<trkpt lat="37.555206" lon="127.000275"><ele>113.1</ele></trkpt>
<trkpt lat="37.554838" lon="126.999940"><ele>115.2</ele></trkpt>
<trkpt lat="37.554683" lon="126.999739"><ele>115.5</ele></trkpt>
<trkpt lat="37.554547" lon="126.999443"><ele>115.9</ele></trkpt>
<trkpt lat="37.554321" lon="126.998762"><ele>116.7</ele></trkpt>
<trkpt lat="37.554260" lon="126.998628"><ele>116.7</ele></trkpt>
<trkpt lat="37.554145" lon="126.998558"><ele>117.7</ele></trkpt>
<trkpt lat="37.554037" lon="126.998532"><ele>119.0</ele></trkpt>
<trkpt lat="37.553477" lon="126.998451"><ele>118.1</ele></trkpt>
<trkpt lat="37.553231" lon="126.998384"><ele>118.0</ele></trkpt>
<trkpt lat="37.553059" lon="126.998307"><ele>117.3</ele></trkpt>
<trkpt lat="37.552244" lon="126.997866"><ele>120.3</ele></trkpt>
<trkpt lat="37.551590" lon="126.997566"><ele>120.6</ele></trkpt>
<trkpt lat="37.551301" lon="126.997433"><ele>123.6</ele></trkpt>
<trkpt lat="37.551156" lon="126.997418"><ele>123.6</ele></trkpt>
<trkpt lat="37.550902" lon="126.997585"><ele>123.6</ele></trkpt>
<trkpt lat="37.550818" lon="126.997732"><ele>123.6</ele></trkpt>
<trkpt lat="37.550765" lon="126.998420"><ele>125.0</ele></trkpt>
</trkseg></trk></gpx>
