<?xml version="1.0" encoding="UTF-8"?>
<gpx version="1.1" creator="Runvis" xmlns="http://www.topografix.com/GPX/1/1">
<trk><name>양재천</name><trkseg>
<trkpt lat="37.473351" lon="127.037796"><ele>17.9</ele></trkpt>
<trkpt lat="37.473555" lon="127.037797"><ele>17.9</ele></trkpt>
<trkpt lat="37.473787" lon="127.037884"><ele>17.9</ele></trkpt>
<trkpt lat="37.473908" lon="127.038004"><ele>17.9</ele></trkpt>
<trkpt lat="37.473946" lon="127.038164"><ele>17.9</ele></trkpt>
<trkpt lat="37.473948" lon="127.038319"><ele>17.8</ele></trkpt>
<trkpt lat="37.474114" lon="127.038961"><ele>18.1</ele></trkpt>
<trkpt lat="37.474195" lon="127.039111"><ele>18.1</ele></trkpt>
<trkpt lat="37.474286" lon="127.039257"><ele>18.1</ele></trkpt>
<trkpt lat="37.474410" lon="127.039453"><ele>18.0</ele></trkpt>
<trkpt lat="37.474491" lon="127.039608"><ele>18.1</ele></trkpt>
<trkpt lat="37.474689" lon="127.039935"><ele>18.3</ele></trkpt>
<trkpt lat="37.474840" lon="127.040157"><ele>18.6</ele></trkpt>
<trkpt lat="37.474980" lon="127.040322"><ele>18.7</ele></trkpt>
<trkpt lat="37.475282" lon="127.040619"><ele>18.6</ele></trkpt>
<trkpt lat="37.475601" lon="127.040821"><ele>18.5</ele></trkpt>
<trkpt lat="37.475871" lon="127.041036"><ele>18.6</ele></trkpt>
<trkpt lat="37.476179" lon="127.041329"><ele>18.4</ele></trkpt>
<trkpt lat="37.476438" lon="127.041567"><ele>18.5</ele></trkpt>
<trkpt lat="37.476683" lon="127.041773"><ele>18.4</ele></trkpt>
<trkpt lat="37.476985" lon="127.042019"><ele>17.8</ele></trkpt>
<trkpt lat="37.477439" lon="127.042377"><ele>17.4</ele></trkpt>
<trkpt lat="37.477622" lon="127.042528"><ele>17.2</ele></trkpt>
<trkpt lat="37.477958" lon="127.042832"><ele>17.6</ele></trkpt>
<trkpt lat="37.478185" lon="127.043034"><ele>17.4</ele></trkpt>
<trkpt lat="37.478583" lon="127.043386"><ele>17.2</ele></trkpt>
<trkpt lat="37.478992" lon="127.043724"><ele>19.1</ele></trkpt>
<trkpt lat="37.479171" lon="127.043873"><ele>19.0</ele></trkpt>
<trkpt lat="37.479285" lon="127.043982"><ele>19.0</ele></trkpt>
<trkpt lat="37.479549" lon="127.044200"><ele>18.9</ele></trkpt>
<trkpt lat="37.479813" lon="127.044438"><ele>19.8</ele></trkpt>
<trkpt lat="37.480059" lon="127.044703"><ele>20.0</ele></trkpt>
<trkpt lat="37.480245" lon="127.044899"><ele>19.9</ele></trkpt>
<trkpt lat="37.480390" lon="127.044974"><ele>19.9</ele></trkpt>
<trkpt lat="37.480510" lon="127.045116"><ele>20.2</ele></trkpt>
<trkpt lat="37.480688" lon="127.045432"><ele>20.1</ele></trkpt>
<trkpt lat="37.480905" lon="127.045755"><ele>20.4</ele></trkpt>
<trkpt lat="37.481130" lon="127.046109"><ele>20.8</ele></trkpt>
<trkpt lat="37.481258" lon="127.046257"><ele>20.8</ele></trkpt>
<trkpt lat="37.481359" lon="127.046423"><ele>19.9</ele></trkpt>
<trkpt lat="37.481432" lon="127.046634"><ele>19.4</ele></trkpt>
<trkpt lat="37.481730" lon="127.047113"><ele>19.2</ele></trkpt>
<trkpt lat="37.482344" lon="127.048161"><ele>19.5</ele></trkpt>
<trkpt lat="37.482738" lon="127.048798"><ele>19.8</ele></trkpt>
<trkpt lat="37.483371" lon="127.049855"><ele>18.0</ele></trkpt>
<trkpt lat="37.484059" lon="127.051006"><ele>18.5</ele></trkpt>
<trkpt lat="37.484440" lon="127.051645"><ele>18.6</ele></trkpt>
<trkpt lat="37.484669" lon="127.052036"><ele>16.4</ele></trkpt>
<trkpt lat="37.485275" lon="127.053061"><ele>16.0</ele></trkpt>
<trkpt lat="37.485600" lon="127.053610"><ele>15.0</ele></trkpt>
<trkpt lat="37.486091" lon="127.054448"><ele>14.5</ele></trkpt>
<trkpt lat="37.486772" lon="127.055614"><ele>15.5</ele></trkpt>
<trkpt lat="37.487208" lon="127.056433"><ele>17.0</ele></trkpt>
<trkpt lat="37.487368" lon="127.056723"><ele>17.0</ele></trkpt>
<trkpt lat="37.488469" lon="127.058759"><ele>14.8</ele></trkpt>
<trkpt lat="37.488598" lon="127.059311"><ele>14.8</ele></trkpt>
<trkpt lat="37.488714" lon="127.060053"><ele>14.4</ele></trkpt>
<trkpt lat="37.488786" lon="127.060427"><ele>14.4</ele></trkpt>
<trkpt lat="37.489075" lon="127.061933"><ele>13.8</ele></trkpt>
<trkpt lat="37.489232" lon="127.062834"><ele>13.8</ele></trkpt>
<trkpt lat="37.489390" lon="127.063700"><ele>13.9</ele></trkpt>
<trkpt lat="37.489510" lon="127.064337"><ele>14.2</ele></trkpt>
<trkpt lat="37.489616" lon="127.064902"><ele>14.5</ele></trkpt>
<trkpt lat="37.489667" lon="127.065167"><ele>14.9</ele></trkpt>
<trkpt lat="37.489841" lon="127.065476"><ele>15.0</ele></trkpt>
<trkpt lat="37.489873" lon="127.065800"><ele>15.0</ele></trkpt>
<trkpt lat="37.489853" lon="127.066043"><ele>14.9</ele></trkpt>
<trkpt lat="37.489923" lon="127.066319"><ele>14.9</ele></trkpt>
<trkpt lat="37.490038" lon="127.066712"><ele>14.6</ele></trkpt>
<trkpt lat="37.490139" lon="127.067105"><ele>15.1</ele></trkpt>
<trkpt lat="37.490140" lon="127.067243"><ele>15.1</ele></trkpt>
<trkpt lat="37.490203" lon="127.067431"><ele>15.6</ele></trkpt>
<trkpt lat="37.490267" lon="127.067597"><ele>15.4</ele></trkpt>
<trkpt lat="37.490520" lon="127.067960"><ele>15.4</ele></trkpt>
<trkpt lat="37.490630" lon="127.068195"><ele>15.1</ele></trkpt>
<trkpt lat="37.490743" lon="127.068425"><ele>15.1</ele></trkpt>
<trkpt lat="37.491032" lon="127.068944"><ele>14.9</ele></trkpt>
<trkpt lat="37.491169" lon="127.069149"><ele>14.6</ele></trkpt>
<trkpt lat="37.491296" lon="127.069363"><ele>14.4</ele></trkpt>
<trkpt lat="37.491303" lon="127.069550"><ele>14.5</ele></trkpt>
<trkpt lat="37.491502" lon="127.069878"><ele>14.8</ele></trkpt>
<trkpt lat="37.491629" lon="127.070032"><ele>14.8</ele></trkpt>
<trkpt lat="37.491887" lon="127.070355"><ele>15.7</ele></trkpt>
<trkpt lat="37.492095" lon="127.070588"><ele>15.8</ele></trkpt>
<trkpt lat="37.492593" lon="127.071124"><ele>15.6</ele></trkpt>
<trkpt lat="37.492752" lon="127.071297"><ele>15.6</ele></trkpt>
<trkpt lat="37.492859" lon="127.071430"><ele>15.9</ele></trkpt>
<trkpt lat="37.493057" lon="127.071669"><ele>16.4</ele></trkpt>
<trkpt lat="37.493395" lon="127.071985"><ele>16.7</ele></trkpt>
</trkseg></trk></gpx>
