<?xml version="1.0" encoding="UTF-8"?>
<gpx version="1.1" creator="Runvis" xmlns="http://www.topografix.com/GPX/1/1">
<trk><name>응봉산 계단</name><trkseg>
<trkpt lat="37.550342" lon="127.034581"><ele>18.8</ele></trkpt>
<trkpt lat="37.550136" lon="127.034435"><ele>20.7</ele></trkpt>
<trkpt lat="37.549736" lon="127.034161"><ele>22.7</ele></trkpt>
<trkpt lat="37.548971" lon="127.033678"><ele>26.5</ele></trkpt>
<trkpt lat="37.548936" lon="127.033520"><ele>27.3</ele></trkpt>
<trkpt lat="37.549107" lon="127.033287"><ele>28.6</ele></trkpt>
<trkpt lat="37.549181" lon="127.033176"><ele>31.3</ele></trkpt>
<trkpt lat="37.549060" lon="127.033067"><ele>33.0</ele></trkpt>
<trkpt lat="37.548971" lon="127.032988"><ele>34.5</ele></trkpt>
<trkpt lat="37.548537" lon="127.032637"><ele>40.9</ele></trkpt>
<trkpt lat="37.548575" lon="127.032487"><ele>42.0</ele></trkpt>
<trkpt lat="37.548614" lon="127.032353"><ele>42.0</ele></trkpt>
<trkpt lat="37.548638" lon="127.032213"><ele>42.9</ele></trkpt>
<trkpt lat="37.548638" lon="127.031891"><ele>45.7</ele></trkpt>
<trkpt lat="37.548474" lon="127.031806"><ele>48.6</ele></trkpt>
<trkpt lat="37.548251" lon="127.031890"><ele>51.1</ele></trkpt>
<trkpt lat="37.548132" lon="127.031827"><ele>52.8</ele></trkpt>
<trkpt lat="37.548092" lon="127.031694"><ele>53.9</ele></trkpt>
<trkpt lat="37.548194" lon="127.031581"><ele>55.1</ele></trkpt>
<trkpt lat="37.548287" lon="127.031446"><ele>55.1</ele></trkpt>
<trkpt lat="37.548298" lon="127.031304"><ele>55.1</ele></trkpt>
<trkpt lat="37.548200" lon="127.031193"><ele>55.1</ele></trkpt>
<trkpt lat="37.548119" lon="127.031065"><ele>56.2</ele></trkpt>
<trkpt lat="37.548025" lon="127.030914"><ele>58.9</ele></trkpt>
<trkpt lat="37.547939" lon="127.030676"><ele>60.8</ele></trkpt>
<trkpt lat="37.548102" lon="127.030528"><ele>62.6</ele></trkpt>
<trkpt lat="37.548238" lon="127.030432"><ele>64.5</ele></trkpt>
<trkpt lat="37.548353" lon="127.030351"><ele>65.1</ele></trkpt>
<trkpt lat="37.548470" lon="127.030210"><ele>65.5</ele></trkpt>
<trkpt lat="37.548475" lon="127.030030"><ele>66.9</ele></trkpt>
<trkpt lat="37.548430" lon="127.029671"><ele>68.0</ele></trkpt>
<trkpt lat="37.548459" lon="127.029536"><ele>67.7</ele></trkpt>
<trkpt lat="37.548353" lon="127.029471"><ele>67.4</ele></trkpt>
<trkpt lat="37.548172" lon="127.029517"><ele>67.1</ele></trkpt>
<trkpt lat="37.547915" lon="127.029638"><ele>66.3</ele></trkpt>
<trkpt lat="37.547739" lon="127.029797"><ele>65.2</ele></trkpt>
<trkpt lat="37.547767" lon="127.029950"><ele>65.2</ele></trkpt>
<trkpt lat="37.547739" lon="127.029797"><ele>64.5</ele></trkpt>
<trkpt lat="37.547915" lon="127.029638"><ele>66.8</ele></trkpt>
<trkpt lat="37.548172" lon="127.029517"><ele>67.0</ele></trkpt>
<trkpt lat="37.548353" lon="127.029471"><ele>67.0</ele></trkpt>
<trkpt lat="37.548459" lon="127.029536"><ele>67.3</ele></trkpt>
<trkpt lat="37.548430" lon="127.029671"><ele>67.6</ele></trkpt>
<trkpt lat="37.548527" lon="127.029959"><ele>66.8</ele></trkpt>
<trkpt lat="37.548470" lon="127.030119"><ele>66.4</ele></trkpt>
<trkpt lat="37.548442" lon="127.030276"><ele>65.4</ele></trkpt>
<trkpt lat="37.548238" lon="127.030432"><ele>63.3</ele></trkpt>
<trkpt lat="37.548102" lon="127.030528"><ele>60.7</ele></trkpt>
<trkpt lat="37.548008" lon="127.030600"><ele>60.7</ele></trkpt>
<trkpt lat="37.548025" lon="127.030914"><ele>58.9</ele></trkpt>
<trkpt lat="37.548119" lon="127.031065"><ele>56.1</ele></trkpt>
<trkpt lat="37.548200" lon="127.031193"><ele>55.0</ele></trkpt>
<trkpt lat="37.548298" lon="127.031304"><ele>55.0</ele></trkpt>
<trkpt lat="37.548287" lon="127.031446"><ele>55.0</ele></trkpt>
<trkpt lat="37.548194" lon="127.031581"><ele>55.0</ele></trkpt>
<trkpt lat="37.548092" lon="127.031694"><ele>53.9</ele></trkpt>
<trkpt lat="37.548132" lon="127.031827"><ele>52.6</ele></trkpt>
<trkpt lat="37.548251" lon="127.031890"><ele>50.9</ele></trkpt>
<trkpt lat="37.548385" lon="127.031836"><ele>50.0</ele></trkpt>
<trkpt lat="37.548570" lon="127.031818"><ele>47.2</ele></trkpt>
<trkpt lat="37.548639" lon="127.032079"><ele>42.9</ele></trkpt>
<trkpt lat="37.548614" lon="127.032353"><ele>42.0</ele></trkpt>
<trkpt lat="37.548575" lon="127.032487"><ele>42.0</ele></trkpt>
<trkpt lat="37.548537" lon="127.032637"><ele>40.9</ele></trkpt>
<trkpt lat="37.548915" lon="127.032938"><ele>34.5</ele></trkpt>
<trkpt lat="37.549033" lon="127.033042"><ele>33.0</ele></trkpt>
<trkpt lat="37.549181" lon="127.033176"><ele>30.5</ele></trkpt>
<trkpt lat="37.549107" lon="127.033287"><ele>28.6</ele></trkpt>
<trkpt lat="37.548994" lon="127.033456"><ele>27.3</ele></trkpt>
<trkpt lat="37.548926" lon="127.033575"><ele>26.5</ele></trkpt>
<trkpt lat="37.549736" lon="127.034161"><ele>22.7</ele></trkpt>
<trkpt lat="37.550136" lon="127.034435"><ele>20.6</ele></trkpt>
<trkpt lat="37.550342" lon="127.034581"><ele>18.8</ele></trkpt>
</trkseg></trk></gpx>
